,name,url,agency_type,street_address,longitude,latitude
0,Department of Developmental Services,https://www.otan.us/caaeproviders/index.cfm?fuseaction=detail&id=10384&myzip=95814&distance=3500,State Agency,"1600 9th Street, #340, MS 3-17 Sacramento, CA 95814",-121.49764,38.57301
1,Office of Correctional Education,https://www.otan.us/caaeproviders/index.cfm?fuseaction=detail&id=10434&myzip=95814&distance=3500,State Agency,"1515 S Street Room 400-South Sacramento, CA 95811",-121.490177,38.568732
2,Sacramento City Adult Education Office,https://www.otan.us/caaeproviders/index.cfm?fuseaction=detail&id=10112&myzip=95814&distance=3500,Local Educational Agency (LEA),"5241 J Street Sacramento, CA 95819",-121.439157,38.566467
3,Washington Adult School,https://www.otan.us/caaeproviders/index.cfm?fuseaction=detail&id=10271&myzip=95814&distance=3500,Local Educational Agency (LEA),"919 Westacre Road West Sacramento, CA 95691",-121.529277,38.577762
4,Natomas Adult Education Program - Discover HS,https://www.otan.us/caaeproviders/index.cfm?fuseaction=detail&id=9748&myzip=95814&distance=3500,Local Educational Agency (LEA),"3401 Rosin Boulevard Sacramento, CA 95834",-121.50287,38.63075
5,Los Rios Community College District,https://www.otan.us/caaeproviders/index.cfm?fuseaction=detail&id=888888421&myzip=95814&distance=3500,Community College,"1919 Spanos Court Sacramento, CA 95825",-121.417196,38.580096
6,Sacramento City College,https://www.otan.us/caaeproviders/index.cfm?fuseaction=detail&id=994437807&myzip=95814&distance=3500,Community College,"3835 Freeport Blvd. Sacramento, California 95822",-121.489393,38.540615
7,Highlands Community Charter School,https://www.otan.us/caaeproviders/index.cfm?fuseaction=detail&id=11057&myzip=95814&distance=3500,,"1333 Grand Avenue Sacramento, CA 95838",-121.43506,38.63744
8,Twin Rivers Adult - Grand Ave Center,https://www.otan.us/caaeproviders/index.cfm?fuseaction=detail&id=53430444&myzip=95814&distance=3500,LEA,"1333 Grand Avenue Sacramento, CA 95838",-121.43506,38.63744
9,Charles A. Jones Education Center (Adult),https://www.otan.us/caaeproviders/index.cfm?fuseaction=detail&id=393430030&myzip=95814&distance=3500,LEA,"5451 Lemon Hill Avenue Sacramento, CA 95824",-121.440956,38.517488
10,Creekside Adult Center,https://www.otan.us/caaeproviders/index.cfm?fuseaction=detail&id=11049&myzip=95814&distance=3500,,"2641 Kent Dr Sacramento, CA 95821",-121.394517,38.613311
11,Cosumnes River College,https://www.otan.us/caaeproviders/index.cfm?fuseaction=detail&id=994437854&myzip=95814&distance=3500,,"8401 Center Parkway Sacramento, CA 95823",-121.4225,38.453475
12,Elk Grove Adult and Community Education,https://www.otan.us/caaeproviders/index.cfm?fuseaction=detail&id=10641&myzip=95814&distance=3500,Local Educational Agency (LEA),"8401-B Gerber Road Sacramento, CA 95828",-121.39319,38.4826
13,Center Adult School,https://www.otan.us/caaeproviders/index.cfm?fuseaction=detail&id=9808&myzip=95814&distance=3500,Local Educational Agency (LEA),"8725 Watt Avenue Antelope, CA 95843",-121.393522,38.728057
14,Center Joint Unified School District,https://www.otan.us/caaeproviders/index.cfm?fuseaction=detail&id=10637&myzip=95814&distance=3500,Local Educational Agency (LEA),"8408 Watt Avenue Antelope, CA 95843",-121.390817,38.721873
15,Twin Rivers Adult School - McClellanCenter,https://www.otan.us/caaeproviders/index.cfm?fuseaction=detail&id=10018&myzip=95814&distance=3500,Local Educational Agency (LEA),"5703 Skvarla Avenue McClellan, CA 95660",-121.384923,38.670922
16,Sacramento Lao Family Community Inc.,https://www.otan.us/caaeproviders/index.cfm?fuseaction=detail&id=10385&myzip=95814&distance=3500,Community-based Organization,", CA 95841",-121.35,38.65
17,Orange Grove Adult School,https://www.otan.us/caaeproviders/index.cfm?fuseaction=detail&id=473430105&myzip=95814&distance=3500,LEA,"4640 Orange Grove Avenue Sacramento, CA 95841",-121.356314,38.647451
18,American River College,https://www.otan.us/caaeproviders/index.cfm?fuseaction=detail&id=994437808&myzip=95814&distance=3500,Community College,"4700 College Oak Drive Sacramento, California 95841",-121.348292,38.64935
19,Woodland Community College,https://www.otan.us/caaeproviders/index.cfm?fuseaction=detail&id=994437817&myzip=95814&distance=3500,Community College,"2300 E. Gibson Road Woodland, California 95776",-121.734225,38.658386
20,Folsom Adult School,https://www.otan.us/caaeproviders/index.cfm?fuseaction=detail&id=10227&myzip=95814&distance=3500,Local Educational Agency (LEA),"10850 Gadsten Way Rancho Cordova, CA 95670",-121.280003,38.606565
21,Davis Adult and Community Education,https://www.otan.us/caaeproviders/index.cfm?fuseaction=detail&id=9757&myzip=95814&distance=3500,Local Educational Agency (LEA),"315 West 14th Street Corner of Oak Avenue and 14th Street Davis, CA 95616",-121.75019,38.55828
22,Director College/Career Readiness & Adult Education Director,https://www.otan.us/caaeproviders/index.cfm?fuseaction=detail&id=10123&myzip=95814&distance=3500,Local Educational Agency (LEA),"7322 Sunrise Blvd Citrus Heights, CA 95610",-121.27166,38.69927
23,Sunrise Technical Center-Adult Education,https://www.otan.us/caaeproviders/index.cfm?fuseaction=detail&id=10284&myzip=95814&distance=3500,Local Educational Agency (LEA),"7322 Sunrise Blvd. Citrus Heights, CA 95610",-121.27166,38.69927
24,Roseville Adult School,https://www.otan.us/caaeproviders/index.cfm?fuseaction=detail&id=10110&myzip=95814&distance=3500,Local Educational Agency (LEA),"200 Branstetter Street Roseville, CA 95678",-121.280099,38.752091
25,Woodland Adult Education,https://www.otan.us/caaeproviders/index.cfm?fuseaction=detail&id=9872&myzip=95814&distance=3500,Local Educational Agency (LEA),"575 Hays Street Woodland, CA 95695",-121.77349,38.66686
26,Yolo County Library,https://www.otan.us/caaeproviders/index.cfm?fuseaction=detail&id=99999921&myzip=95814&distance=3500,Public Library,"625 Court Street Woodland, CA 95695",-121.772697,38.67881
27,Folsom Lake College,https://www.otan.us/caaeproviders/index.cfm?fuseaction=detail&id=994437803&myzip=95814&distance=3500,Community College,"10 College Parkway Folsom, CA 95630",-121.12693,38.66259
28,Sierra Joint Community College District,https://www.otan.us/caaeproviders/index.cfm?fuseaction=detail&id=888888390&myzip=95814&distance=3500,Community College,"5000 Rocklin Road Rocklin, CA 95677",-121.213221,38.790714
29,Rocklin Adult School - Victory HS,https://www.otan.us/caaeproviders/index.cfm?fuseaction=detail&id=9960&myzip=95814&distance=3500,Local Educational Agency (LEA),"3250 Victory Drive Rocklin, CA 95765",-121.254704,38.815749
30,East Nicholas Joint Union High School District/Sutter CAAEP,https://www.otan.us/caaeproviders/index.cfm?fuseaction=detail&id=9650&myzip=95814&distance=3500,Collaboration,"2454 Nicolaus Avenue Nicolaus, CA 95659",-121.5233,38.90974
31,Galt Adult School,https://www.otan.us/caaeproviders/index.cfm?fuseaction=detail&id=10167&myzip=95814&distance=3500,Local Educational Agency (LEA),"12935 Marengo Road Galt, CA 95632",-121.28448,38.28549
32,Lincoln Adult School,https://www.otan.us/caaeproviders/index.cfm?fuseaction=detail&id=9772&myzip=95814&distance=3500,Local Educational Agency (LEA),"870 J Street Lincoln, CA 95648",-121.29768,38.89634
33,Yuba City Unified School District/Sutter CAAEP,https://www.otan.us/caaeproviders/index.cfm?fuseaction=detail&id=9649&myzip=95814&distance=3500,Collaboration,"750 N. Palora Avenue Yuba City, CA 95991",-121.633749,39.134193
34,Sutter County Library,https://www.otan.us/caaeproviders/index.cfm?fuseaction=detail&id=10386&myzip=95814&distance=3500,Public Library,"750 Forbes Avenue Yuba City, CA 95991",-121.624539,39.13755
35,Vacaville Adult School,https://www.otan.us/caaeproviders/index.cfm?fuseaction=detail&id=9906&myzip=95814&distance=3500,Local Educational Agency (LEA),"100-A McClellan Street 100-A McClellan Street Vacaville, CA 95687",-121.98328,38.35885
36,Wind River High School,https://www.otan.us/caaeproviders/index.cfm?fuseaction=detail&id=10497&myzip=95814&distance=3500,Local Educational Agency (LEA),"445 Montezuma Street Rio Vista, CA 94571",-121.69491,38.15739
37,Placer School for Adults,https://www.otan.us/caaeproviders/index.cfm?fuseaction=detail&id=10163&myzip=95814&distance=3500,Local Educational Agency (LEA),"3775 Richardson Drive Auburn, CA 95603",-121.10815,38.95166
38,PSA Career Center,https://www.otan.us/caaeproviders/index.cfm?fuseaction=detail&id=10827&myzip=95814&distance=3500,,"1919 Grass Valley Hiway Auburn, CA 95603",-121.08946,38.93063
39,Lodi Adult School,https://www.otan.us/caaeproviders/index.cfm?fuseaction=detail&id=9972&myzip=95814&distance=3500,Local Educational Agency (LEA),"542 East Pine Street Lodi, CA 95240",-121.2631,38.1336
40,Fairfield-Suisun Adult School,https://www.otan.us/caaeproviders/index.cfm?fuseaction=detail&id=10225&myzip=95814&distance=3500,Local Educational Agency (LEA),"900 Travis Blvd Fairfield, CA, CA 94533",-122.04501,38.2583
41,Solano County Community College District,https://www.otan.us/caaeproviders/index.cfm?fuseaction=detail&id=888888388&myzip=95814&distance=3500,Community College,"4000 Suisun Valley Road Fairfield, CA 94534",-122.122692,38.235739
42,El Dorado Adult School,https://www.otan.us/caaeproviders/index.cfm?fuseaction=detail&id=10221&myzip=95814&distance=3500,Local Educational Agency (LEA),"385 Pleasant Valley Road Diamond Springs, CA 95619",-120.82903,38.69025
43,Sutter County Adult Education/CAAEP,https://www.otan.us/caaeproviders/index.cfm?fuseaction=detail&id=10405&myzip=95814&distance=3500,Collaboration,"1699 Sierra Ave Yuba City, CA 95993",-121.651225,39.140664
44,Sutter County Adult Education,https://www.otan.us/caaeproviders/index.cfm?fuseaction=detail&id=10411&myzip=95814&distance=3500,Collaboration,"1699 Sierra Ave Yuba City, CA 95993",-121.651225,39.140664
45,Sutter County Adult Education,https://www.otan.us/caaeproviders/index.cfm?fuseaction=detail&id=125130109&myzip=95814&distance=3500,LEA,"950 Tharp Road, no. 1000 Yuba City, CA 95993",-121.651348,39.138482
46,San Joaquin Delta Community College District,https://www.otan.us/caaeproviders/index.cfm?fuseaction=detail&id=888888399&myzip=95814&distance=3500,Community College,"5151 Pacific Avenue Stockton, CA 95207",-121.319324,37.995364
47,Amador Adult Education,https://www.otan.us/caaeproviders/index.cfm?fuseaction=detail&id=9951&myzip=95814&distance=3500,Local Educational Agency (LEA),"525 Independence Drive Sutter Creek, CA 95685",-120.73384,38.40328
48,Sutter Union High School District/Sutter CAAEP,https://www.otan.us/caaeproviders/index.cfm?fuseaction=detail&id=9639&myzip=95814&distance=3500,Collaboration,"2665 Acacia Street Sutter, CA 95982",-121.755971,39.166955
49,Stockton School for Adults,https://www.otan.us/caaeproviders/index.cfm?fuseaction=detail&id=9853&myzip=95814&distance=3500,Local Educational Agency (LEA),"1525 Pacific Avenue Stockton, CA 95204",-121.300197,37.967259
50,Nevada Joint Union Adult Education,https://www.otan.us/caaeproviders/index.cfm?fuseaction=detail&id=9898&myzip=95814&distance=3500,Local Educational Agency (LEA),"11761 Ridge Road Grass Valley, CA 95949",-121.05309,39.23965
51,Yuba Community College District,https://www.otan.us/caaeproviders/index.cfm?fuseaction=detail&id=888888377&myzip=95814&distance=3500,Community College,"2088 N. Beale Road Marysville, CA 95901",-121.540412,39.126913
52,Antioch Adult School,https://www.otan.us/caaeproviders/index.cfm?fuseaction=detail&id=10239&myzip=95814&distance=3500,Local Educational Agency (LEA),"820 West Second Street Antioch, CA 94509",-121.81618,38.017
53,Antioch Adult,https://www.otan.us/caaeproviders/index.cfm?fuseaction=detail&id=480730804&myzip=95814&distance=3500,LEA,"820 West Second Street Antioch, CA 94509",-121.81618,38.017
54,Black Oak Mine Unified School District/El Dorado CAAEP,https://www.otan.us/caaeproviders/index.cfm?fuseaction=detail&id=9464&myzip=95814&distance=3500,Local Educational Agency (LEA),"6540 Wentworth Springs Road Georgetown, CA 95634",-120.83083,38.91243
55,Pittsburg Adult Education Center,https://www.otan.us/caaeproviders/index.cfm?fuseaction=detail&id=9886&myzip=95814&distance=3500,Local Educational Agency (LEA),"1151 Stoneman Avenue Pittsburg, CA 94565",-121.874778,38.003276
56,Los Medanos College,https://www.otan.us/caaeproviders/index.cfm?fuseaction=detail&id=994437853&myzip=95814&distance=3500,Community College,"2700 East Leland Road Pittsburg, California 94565",-121.860445,38.005507
57,Liberty Union Adult School,https://www.otan.us/caaeproviders/index.cfm?fuseaction=detail&id=10191&myzip=95814&distance=3500,Local Educational Agency (LEA),"929 Second Street Brentwood, CA 94513",-121.695962,37.935658
58,Liberty Adult Education,https://www.otan.us/caaeproviders/index.cfm?fuseaction=detail&id=210730150&myzip=95814&distance=3500,LEA,"929 Second Street Brentwood, CA 94513",-121.695962,37.935658
59,"San Joaquin COE, CTE Program",https://www.otan.us/caaeproviders/index.cfm?fuseaction=detail&id=99999929&myzip=95814&distance=3500,Local Public Agency,"2922 Transworld Drive Stockton, CA 95206",-121.229157,37.906524
60,Napa Valley Adult Education,https://www.otan.us/caaeproviders/index.cfm?fuseaction=detail&id=10154&myzip=95814&distance=3500,Local Educational Agency (LEA),"1600 Lincoln Avenue Napa, CA 94558",-122.297954,38.308249
61,Napa Valley Community College District,https://www.otan.us/caaeproviders/index.cfm?fuseaction=detail&id=888888413&myzip=95814&distance=3500,Community College,"2277 Napa-Vallejo Hwy Napa, CA 94558",-122.274758,38.27388
62,Live Oak USD / Sutter CAAEP,https://www.otan.us/caaeproviders/index.cfm?fuseaction=detail&id=9964&myzip=95814&distance=3500,Local Educational Agency (LEA),"2201 Pennington Road Live Oak, CA 95953",-121.655264,39.277673
63,Nevada Adult Education School,https://www.otan.us/caaeproviders/index.cfm?fuseaction=detail&id=572930113&myzip=95814&distance=3500,LEA,"11761 Ridge Road Grass Valley, CA 95945",-121.05309,39.23965
64,Mt. Diablo Unified School District-Mt. Diablo Adult Education,https://www.otan.us/caaeproviders/index.cfm?fuseaction=detail&id=10605&myzip=95814&distance=3500,Local Educational Agency (LEA),"Loma Vista Adult Center 1266 San Carlos Avenue Concord, CA 94519",-122.03,37.98
65,Regional Education Center (a.k.a Vallejo Adult School),https://www.otan.us/caaeproviders/index.cfm?fuseaction=detail&id=9861&myzip=95814&distance=3500,Local Educational Agency (LEA),"436 Del Sur Street Vallejo, CA 94591",-122.22735,38.08245
66,Colusa County Office of Education-Adult Ed,https://www.otan.us/caaeproviders/index.cfm?fuseaction=detail&id=10056&myzip=95814&distance=3500,COE,"499 Marguerite Street Suite B Williams, CA 95932",-122.14687,39.15613
67,St. Helena Adult School,https://www.otan.us/caaeproviders/index.cfm?fuseaction=detail&id=9803&myzip=95814&distance=3500,Local Educational Agency (LEA),"1325 Adams Street St. Helena, CA 94574",-122.471582,38.503429
68,Mt. Diablo Adult Education-Mt. Diablo USD,https://www.otan.us/caaeproviders/index.cfm?fuseaction=detail&id=10028&myzip=95814&distance=3500,Local Educational Agency (LEA),"Loma Vista Adult Center 1266 San Carlos Avenue Concord, CA 94518",-122.026589,37.968805
69,Mt. Diablo Adult Education-Mt Diablo USD-Loma Vista Adult Center,https://www.otan.us/caaeproviders/index.cfm?fuseaction=detail&id=10606&myzip=95814&distance=3500,Local Educational Agency (LEA),"1266 San Carlos Avenue Concord,, CA 94518",-122.026589,37.968805
70,Mt. Diablo Adult Education-Mt. Diablo USD - Pleasant Hill Adult Center,https://www.otan.us/caaeproviders/index.cfm?fuseaction=detail&id=10678&myzip=95814&distance=3500,Local Educational Agency (LEA),"Loma Vista Adult Center 1266 San Carlos Avenue Concord,   94518",-122.026589,37.968805
71,Pleasant Hill Education Center,https://www.otan.us/caaeproviders/index.cfm?fuseaction=detail&id=540735670&myzip=95814&distance=3500,LEA,"1266 San Carlos Avenue Concord, CA 94518",-122.026589,37.968805
72,Calaveras County Office of Education,https://www.otan.us/caaeproviders/index.cfm?fuseaction=detail&id=10574&myzip=95814&distance=3500,COE,"185 S. Main Street Angels Camp, CA 95249",-120.555229,38.080807
73,Project Second Chance (county library),https://www.otan.us/caaeproviders/index.cfm?fuseaction=detail&id=99999906&myzip=95814&distance=3500,CBO,"75 Santa Barbara Road Pleasant Hill, CA 94523",-122.07187,37.93582
74,Diablo Valley College,https://www.otan.us/caaeproviders/index.cfm?fuseaction=detail&id=994437804&myzip=95814&distance=3500,Community College,"321 Golf Club Rd. Pleasant Hill, California 94523",-122.070719,37.971324
75,Nevada County Library: Read UP,https://www.otan.us/caaeproviders/index.cfm?fuseaction=detail&id=99999939&myzip=95814&distance=3500,Public Library,"980 Helling Way Nevada City, CA 95959",-121.023896,39.269495
76,Nevada County Jail (Wayne Brown),https://www.otan.us/caaeproviders/index.cfm?fuseaction=detail&id=99999940&myzip=95814&distance=3500,Correctional Institutions,"950 Maidu Avenue Nevada City, CA 95959",-121.026551,39.270226
77,Partners In English Language Learning,https://www.otan.us/caaeproviders/index.cfm?fuseaction=detail&id=99999941&myzip=95814&distance=3500,CBO,"103 Providence Mine Rd #104b Nevada City, CA 95959",-121.07496,38.908596
78,Gridley Adult Education,https://www.otan.us/caaeproviders/index.cfm?fuseaction=detail&id=9807&myzip=95814&distance=3500,Local Educational Agency (LEA),"581 Jackson Street Gridley, CA 95948",-121.69334,39.3652
79,Martinez Adult Education,https://www.otan.us/caaeproviders/index.cfm?fuseaction=detail&id=10136&myzip=95814&distance=3500,Local Educational Agency (LEA),"600 F Street Martinez, CA 94553",-122.130957,38.000608
80,Contra Costa Community College District,https://www.otan.us/caaeproviders/index.cfm?fuseaction=detail&id=888888437&myzip=95814&distance=3500,Community College,"500 Court Street Martinez, CA 94553",-122.135359,38.019112
81,Manteca Adult School,https://www.otan.us/caaeproviders/index.cfm?fuseaction=detail&id=10135&myzip=95814&distance=3500,Local Educational Agency (LEA),"District Office Complex 2271 W. Louise Avenue Manteca, CA 95337",-121.22,37.79
82,Acalanes Adult Education,https://www.otan.us/caaeproviders/index.cfm?fuseaction=detail&id=10233&myzip=95814&distance=3500,Local Educational Agency (LEA),"1963 Tice Valley Boulevard Walnut Creek, CA 94595",-122.075494,37.876403
83,Biggs USD Adult School,https://www.otan.us/caaeproviders/index.cfm?fuseaction=detail&id=9749&myzip=95814&distance=3500,Local Educational Agency (LEA),"300 B Street Biggs, CA 95917",-121.703094,39.415406
84,Tracy Adult School,https://www.otan.us/caaeproviders/index.cfm?fuseaction=detail&id=10647&myzip=95814&distance=3500,Local Educational Agency (LEA),"1895 W Lowell Ave Tracy, CA 95376",-121.45119,37.74712
85,Ripon Unified Adult,https://www.otan.us/caaeproviders/index.cfm?fuseaction=detail&id=9929&myzip=95814&distance=3500,Local Educational Agency (LEA),"304 North Acacia Avenue Ripon, CA 95366",-121.127832,37.742127
86,Escalon Adult School,https://www.otan.us/caaeproviders/index.cfm?fuseaction=detail&id=9959&myzip=95814&distance=3500,Local Educational Agency (LEA),"1520 Yosemite Avenue Escalon, CA 95320",-120.99518,37.79522
87,Bret Harte UHSD (CAAEP),https://www.otan.us/caaeproviders/index.cfm?fuseaction=detail&id=9804&myzip=95814&distance=3500,Local Educational Agency (LEA),"323 South Main Street Angels Camp, CA 95221",-120.553428,38.079281
88,Contra Costa Adult,https://www.otan.us/caaeproviders/index.cfm?fuseaction=detail&id=740730135&myzip=95814&distance=3500,LEA,"5555 Giant Highway Richmond, CA 94806",-122.353677,37.994508
89,Oroville Adult Education Center,https://www.otan.us/caaeproviders/index.cfm?fuseaction=detail&id=10159&myzip=95814&distance=3500,Local Educational Agency (LEA),"2750 Mitchell Avenue Oroville, CA 95966",-121.546133,39.50974
90,Butte County Library,https://www.otan.us/caaeproviders/index.cfm?fuseaction=detail&id=99999904&myzip=95814&distance=3500,Public Library,"1820 Mitchell Avenue Oroville, CA 95966",-121.552799,39.506436
91,Alvarado,https://www.otan.us/caaeproviders/index.cfm?fuseaction=detail&id=10687&myzip=95814&distance=3500,Local Educational Agency (LEA),"5625 Sutter St. Richmond, CA 94805",-122.31278,37.90761
92,West Contra Costa Adult Education,https://www.otan.us/caaeproviders/index.cfm?fuseaction=detail&id=960735928&myzip=95814&distance=3500,LEA,"6028 Ralston Avenue Richmond, CA 94805",-122.321031,37.947716
93,Livermore Adult Education,https://www.otan.us/caaeproviders/index.cfm?fuseaction=detail&id=9869&myzip=95814&distance=3500,Local Educational Agency (LEA),"1401 Almond Avenue Livermore, CA 94550",-121.740768,37.676374
94,Tri-Valley ROP,https://www.otan.us/caaeproviders/index.cfm?fuseaction=detail&id=50195016&myzip=95814&distance=3500,LEA,"1040 Florence Road Livermore, CA 94550",-121.774658,37.669163
95,Chabot-Las Positas Community College District,https://www.otan.us/caaeproviders/index.cfm?fuseaction=detail&id=888888442&myzip=95814&distance=3500,Community College,"7600 Dublin Blvd., 3rd Floor Dublin, CA 94568",-121.92939,37.70402
96,Dublin Adult Education,https://www.otan.us/caaeproviders/index.cfm?fuseaction=detail&id=930130500&myzip=95814&distance=3500,LEA,"6901 York Drive Dublin, CA 94568",-121.921806,37.709521
97,Berkeley City College,https://www.otan.us/caaeproviders/index.cfm?fuseaction=detail&id=994437813&myzip=95814&distance=3500,Community College,"2050 Center Street Berkeley, California 94704",-122.26927,37.87005
98,Piedmont Adult School,https://www.otan.us/caaeproviders/index.cfm?fuseaction=detail&id=9763&myzip=95814&distance=3500,Local Educational Agency (LEA),"800 Magnolia Avenue Piedmont, CA 94611",-122.23259,37.823849
99,Sonoma County Library,https://www.otan.us/caaeproviders/index.cfm?fuseaction=detail&id=10554&myzip=95814&distance=3500,Public Library,"211 E Street Santa Rosa, CA 95404",-122.710787,38.441363
100,Berkeley Adult School,https://www.otan.us/caaeproviders/index.cfm?fuseaction=detail&id=10686&myzip=95814&distance=3500,Local Educational Agency (LEA),"1701 San Pablo Avenue Berkeley, CA 94702",-122.29169,37.873218
101,Novato Adult Education,https://www.otan.us/caaeproviders/index.cfm?fuseaction=detail&id=9753&myzip=95814&distance=3500,Local Educational Agency (LEA),"720 Diablo Avenue Novato, CA 94945",-122.576175,38.097794
102,Central Valley Motherlode Plumbers Pipe and Refrigeration Fitters Joint Apprenticeship Training Committee,https://www.otan.us/caaeproviders/index.cfm?fuseaction=detail&id=99999924&myzip=95814&distance=3500,CBO,"4842 Nutcracker Lane Modesto, CA 95356",-121.073756,37.709515
103,Merritt College,https://www.otan.us/caaeproviders/index.cfm?fuseaction=detail&id=994437805&myzip=95814&distance=3500,Community College,"12500 Campus Drive Oakland, California 94619",-122.167427,37.789936
104,Pleasanton Adult and Career Education,https://www.otan.us/caaeproviders/index.cfm?fuseaction=detail&id=9795&myzip=95814&distance=3500,Local Educational Agency (LEA),"4665 Bernal Avenue Pleasanton, CA 94566",-121.876236,37.656596
105,Carpenters Training Committee for Northern California,https://www.otan.us/caaeproviders/index.cfm?fuseaction=detail&id=99999951&myzip=95814&distance=3500,CBO,"2350 Santa Rita Road Pleasanton, CA 94566",-121.875603,37.684023
106,Konocti Unified School District,https://www.otan.us/caaeproviders/index.cfm?fuseaction=detail&id=9603&myzip=95814&distance=3500,Local Educational Agency (LEA),"9430 Lake Street Clearlake, CA 95422",-122.62,38.93
107,Konocti Adult Education,https://www.otan.us/caaeproviders/index.cfm?fuseaction=detail&id=9993&myzip=95814&distance=3500,Local Educational Agency (LEA),"9430-D Lake Street Lower Lake, CA 95422",-122.60916,38.91327
108,Castro Valley Adult and Career Education,https://www.otan.us/caaeproviders/index.cfm?fuseaction=detail&id=10250&myzip=95814&distance=3500,Local Educational Agency (LEA),"4430 Alma Avenue Castro Valley, CA 94546",-122.071251,37.70776
109,Petaluma Adult School,https://www.otan.us/caaeproviders/index.cfm?fuseaction=detail&id=9885&myzip=95814&distance=3500,Local Educational Agency (LEA),"200 Douglas Street Petaluma, CA 94952",-122.644005,38.229271
110,Butte Community College District,https://www.otan.us/caaeproviders/index.cfm?fuseaction=detail&id=10520&myzip=95814&distance=3500,Community College,"3536 Butte Campus Drive Oroville, CA 95965",-121.644816,39.650281
111,Butte-Glenn Community College District,https://www.otan.us/caaeproviders/index.cfm?fuseaction=detail&id=888888445&myzip=95814&distance=3500,Community College,"3536 Butte Campus Drive Oroville, CA 95965",-121.644816,39.650281
112,"Second Start adult Literacy, Oakland Library",https://www.otan.us/caaeproviders/index.cfm?fuseaction=detail&id=99999925&myzip=95814&distance=3500,Public Library,"125 14th Street Oakland, CA 94612",-122.263681,37.800951
113,Harbor House,https://www.otan.us/caaeproviders/index.cfm?fuseaction=detail&id=10404&myzip=95814&distance=3500,Community-based Organization,"1811 11th Avenue Oakland, CA 94606",-122.245162,37.794361
114,Vietnamese American Community Center of the East Bay,https://www.otan.us/caaeproviders/index.cfm?fuseaction=detail&id=11059&myzip=95814&distance=3500,,"655 International Blvd Oakland, CA 94606",-122.253067,37.794308
115,Peralta Community College District,https://www.otan.us/caaeproviders/index.cfm?fuseaction=detail&id=888888407&myzip=95814&distance=3500,Community College,"333 E. Eighth Street Oakland, CA 94606",-122.25927,37.79296
116,Catholic Charities of the Diocese of Santa Rosa,https://www.otan.us/caaeproviders/index.cfm?fuseaction=detail&id=10439&myzip=95814&distance=3500,Community-based Organization,"987 Airway Court Santa Rosa, CA 95403",-122.737059,38.474957
117,The English Center,https://www.otan.us/caaeproviders/index.cfm?fuseaction=detail&id=10402&myzip=95814&distance=3500,Community-based Organization,"66 Franklin Street Suite 220 Oakland, CA 94607",-122.275597,37.794701
118,Asian Immigrant Women Advocates,https://www.otan.us/caaeproviders/index.cfm?fuseaction=detail&id=10456&myzip=95814&distance=3500,Community-based Organization,"310 8th Street Oakland, CA 94607",-122.27043,37.79897
119,Oakland Adult and Career Education,https://www.otan.us/caaeproviders/index.cfm?fuseaction=detail&id=590130542&myzip=95814&distance=3500,LEA,"2607 Myrtle Street Oakland, CA 94607",-122.27871,37.81785
120,Laney College,https://www.otan.us/caaeproviders/index.cfm?fuseaction=detail&id=994437810&myzip=95814&distance=3500,,", 94607",-122.262895,37.796879
121,Pearson Education Center,https://www.otan.us/caaeproviders/index.cfm?fuseaction=detail&id=10142&myzip=95814&distance=3500,Local Educational Agency (LEA),"500 Locust St. Modesto, CA 95350",-121.01429,37.63978
122,Elliott Alternative Education Center,https://www.otan.us/caaeproviders/index.cfm?fuseaction=detail&id=755034806&myzip=95814&distance=3500,LEA,"1440 Sunrise Avenue Modesto, CA 95350",-120.98471,37.66434
123,Modesto Junior College,https://www.otan.us/caaeproviders/index.cfm?fuseaction=detail&id=994437844&myzip=95814&distance=3500,Community College,"435 College Avenue Modesto, California 95350",-121.011826,37.653018
124,Yosemite Community College District,https://www.otan.us/caaeproviders/index.cfm?fuseaction=detail&id=888888378&myzip=95814&distance=3500,Community College,"PO Box 4065 Modesto, CA 95352",-121.00971,37.673671
125,Santa Rosa Junior College,https://www.otan.us/caaeproviders/index.cfm?fuseaction=detail&id=10489&myzip=95814&distance=3500,Community College,"ma County Junior College District 1501 Mendocino Avenue Santa Rosa, CA 95401",-122.718758,38.455029
126,Sonoma County Community College District,https://www.otan.us/caaeproviders/index.cfm?fuseaction=detail&id=888888387&myzip=95814&distance=3500,Community College,"1501 Mendocino Avenue Santa Rosa, CA 95401",-122.718758,38.455029
127,San Rafael Adult Education,https://www.otan.us/caaeproviders/index.cfm?fuseaction=detail&id=9994&myzip=95814&distance=3500,Local Educational Agency (LEA),"150 Third Street San Rafael, CA 94901",-122.513719,37.970197
128,Canal Alliance,https://www.otan.us/caaeproviders/index.cfm?fuseaction=detail&id=10830&myzip=95814&distance=3500,,"91 Larkspur Street San Rafael, CA 94901",-122.505,37.964004
129,San Leandro Adult School,https://www.otan.us/caaeproviders/index.cfm?fuseaction=detail&id=10124&myzip=95814&distance=3500,Local Educational Agency (LEA),"1448 Williams St. San Leandro, CA 94577",-122.170157,37.713881
130,Parolee Education Program,https://www.otan.us/caaeproviders/index.cfm?fuseaction=detail&id=10205&myzip=95814&distance=3500,COE,"77 Santa Barbara Road Pleasant Hill, CA 95423",-122.069621,37.934985
131,Alameda Adult School,https://www.otan.us/caaeproviders/index.cfm?fuseaction=detail&id=10234&myzip=95814&distance=3500,Local Educational Agency (LEA),"401 Pacific Ave Alameda, CA 94501",-122.28535,37.776561
132,College of Alameda,https://www.otan.us/caaeproviders/index.cfm?fuseaction=detail&id=994437812&myzip=95814&distance=3500,Community College,"555 Ralph Appezzato Memorial Parkway Alameda, California 94501",-122.279406,37.780383
133,The Hayward Center for Education and Careers,https://www.otan.us/caaeproviders/index.cfm?fuseaction=detail&id=10177&myzip=95814&distance=3500,Local Educational Agency (LEA),"22100 Princeton Street Hayward,, CA 94541",-122.098745,37.672153
134,Hayward Adult,https://www.otan.us/caaeproviders/index.cfm?fuseaction=detail&id=920133520&myzip=95814&distance=3500,LEA,"22100 Princeton Street Hayward, CA 94541",-122.098745,37.672153
135,Library Literacy program (ABE),https://www.otan.us/caaeproviders/index.cfm?fuseaction=detail&id=10377&myzip=95814&distance=3500,Community-based Organization,"1500 I Street Modesto, CA 95354",-120.993512,37.643143
136,"Learning Quest, Stanislaus Literacy Centers",https://www.otan.us/caaeproviders/index.cfm?fuseaction=detail&id=10379&myzip=95814&distance=3500,Community-based Organization,"1032 11th St. Modesto, CA 95354",-121.000007,37.642203
137,Family Literacy Program,https://www.otan.us/caaeproviders/index.cfm?fuseaction=detail&id=10491&myzip=95814&distance=3500,Community-based Organization,"1032 11th St. Modesto, CA 95354",-121.000007,37.642203
138,HSE Satellite and Jail programs,https://www.otan.us/caaeproviders/index.cfm?fuseaction=detail&id=10492&myzip=95814&distance=3500,Community-based Organization,"1032 11th St. Modesto, CA 95354",-121.000007,37.642203
139,LearningQuest,https://www.otan.us/caaeproviders/index.cfm?fuseaction=detail&id=99999952&myzip=95814&distance=3500,CBO,"1032 11th Street Modesto, CA 95354",-121.000007,37.642203
140,"Alameda County Jail, Santa Rita",https://www.otan.us/caaeproviders/index.cfm?fuseaction=detail&id=10417&myzip=95814&distance=3500,Local Educational Agency (LEA),"Inmate Services 5325 Broder Boulevard Dublin, CA 94586",-121.9358,37.7022
141,San Lorenzo Adult School,https://www.otan.us/caaeproviders/index.cfm?fuseaction=detail&id=10117&myzip=95814&distance=3500,Local Educational Agency (LEA),"820 Bockman Road San Lorenzo, CA 94580",-122.127754,37.67075
142,Marin Community College District,https://www.otan.us/caaeproviders/index.cfm?fuseaction=detail&id=888888420&myzip=95814&distance=3500,Community College,"835 College Avenue Kentfield, CA 94904",-122.549152,37.955602
143,College of Marin,https://www.otan.us/caaeproviders/index.cfm?fuseaction=detail&id=994437814&myzip=95814&distance=3500,Community College,"835 College Avenue Kentfield, California 94904",-122.549152,37.955602
144,Tamalpais Adult School,https://www.otan.us/caaeproviders/index.cfm?fuseaction=detail&id=9856&myzip=95814&distance=3500,Local Educational Agency (LEA),"375 Doherty Drive Larkspur, CA 94939",-122.526735,37.937702
145,Self-Help for the Elderly,https://www.otan.us/caaeproviders/index.cfm?fuseaction=detail&id=10729&myzip=95814&distance=3500,,"731 Sansome Street San Francisco, CA 94111",-122.40198,37.7968
146,Eden Area ROP,https://www.otan.us/caaeproviders/index.cfm?fuseaction=detail&id=130195024&myzip=95814&distance=3500,LEA,"26316 Hesperian Boulevard Hayward, CA 94545",-122.101074,37.63886
147,Cabot College,https://www.otan.us/caaeproviders/index.cfm?fuseaction=detail&id=994437855&myzip=95814&distance=3500,Community College,"25555 Hesperian Blvd Hayward, California 94545",-122.105615,37.641792
148,JVS / Jewish Vocational Service,https://www.otan.us/caaeproviders/index.cfm?fuseaction=detail&id=10464&myzip=95814&distance=3500,Community-based Organization,"225 Bush Street Suite 400 San Francisco, CA 94104",-122.401337,37.790937
149,City College of San Francisco,https://www.otan.us/caaeproviders/index.cfm?fuseaction=detail&id=10390&myzip=95814&distance=3500,Community College,"50 Phelan Avenue Attn: Academic Affairs, C308 San Francisco, CA 94133",-122.45225,37.72432
150,Chinatown Public Heatlth Center,https://www.otan.us/caaeproviders/index.cfm?fuseaction=detail&id=10659&myzip=95814&distance=3500,Community-based Organization,"1490 Mason Street San Francisco, CA 94133",-122.411758,37.797133
151,Chinatown One Stop Center,https://www.otan.us/caaeproviders/index.cfm?fuseaction=detail&id=10726&myzip=95814&distance=3500,,"601 Jackson Street San Francisco, CA 94133",-122.40545,37.79608
152,Catholic Charities CYO,https://www.otan.us/caaeproviders/index.cfm?fuseaction=detail&id=10382&myzip=95814&distance=3500,Community-based Organization,"180 Howard Street, Suite 100 San Francisco, CA 94105",-122.393393,37.791037
153,Portsmouth Square,https://www.otan.us/caaeproviders/index.cfm?fuseaction=detail&id=10769&myzip=95814&distance=3500,,"733 Kearny St, san francisco, CA 94108",-122.405111,37.794838
154,Chinatown YMCA,https://www.otan.us/caaeproviders/index.cfm?fuseaction=detail&id=10794&myzip=95814&distance=3500,,"855 Sacramento Street San Francisco, CA 94108",-122.406856,37.793026
155,Kelseyville Adult Education,https://www.otan.us/caaeproviders/index.cfm?fuseaction=detail&id=9992&myzip=95814&distance=3500,Local Educational Agency (LEA),"4410 Konocti Road Kelseyville, CA 95451",-122.831204,38.97613
156,New Haven Adult School,https://www.otan.us/caaeproviders/index.cfm?fuseaction=detail&id=10155&myzip=95814&distance=3500,Local Educational Agency (LEA),"600 G Street Union CIty, CA 94587",-122.019697,37.599547
157,Sonora Adult School,https://www.otan.us/caaeproviders/index.cfm?fuseaction=detail&id=9759&myzip=95814&distance=3500,Local Educational Agency (LEA),"251A  S. Barretta Street Sonora, CA 95370",-120.38007,37.98293
158,Columbia College,https://www.otan.us/caaeproviders/index.cfm?fuseaction=detail&id=994437846&myzip=95814&distance=3500,Community College,"11600 Columbia College Drive Sonora, California 95370",-120.388454,38.030285
159,Ceres Adult School,https://www.otan.us/caaeproviders/index.cfm?fuseaction=detail&id=10273&myzip=95814&distance=3500,Local Educational Agency (LEA),"4231 Central Avenue Ceres, CA 95307",-120.958246,37.577211
160,Ceres Unified School District Adult Education,https://www.otan.us/caaeproviders/index.cfm?fuseaction=detail&id=435030044&myzip=95814&distance=3500,LEA,"2491 Lawrence Street Ceres, CA 95307",-120.94999,37.59022
161,Refugee Transitions,https://www.otan.us/caaeproviders/index.cfm?fuseaction=detail&id=10526&myzip=95814&distance=3500,Community-based Organization,"870 Market Street Suite 718 San Francisco, CA 94102",-122.407423,37.785111
162,The ECS Adult Education Center,https://www.otan.us/caaeproviders/index.cfm?fuseaction=detail&id=10465&myzip=95814&distance=3500,Community-based Organization,"165 8th Street San Francisco, CA 94103",-122.41229,37.77688
163,Glenn Adult Program - Career Training and Education Center,https://www.otan.us/caaeproviders/index.cfm?fuseaction=detail&id=10460&myzip=95814&distance=3500,Collaboration,"451 S. Villa Avenue Willows, CA 95988",-122.20782,39.51897
164,Willows and Orland Public Libraries,https://www.otan.us/caaeproviders/index.cfm?fuseaction=detail&id=99999903&myzip=95814&distance=3500,Public Library,"201 N Lassen Street Willows, CA 95988",-122.200312,39.521978
165,Glenn Adult Program,https://www.otan.us/caaeproviders/index.cfm?fuseaction=detail&id=160100370&myzip=95814&distance=3500,LEA,"451 South Villa Avenue Willows, CA 95988",-122.20782,39.51897
166,Waterford Adult Education Center,https://www.otan.us/caaeproviders/index.cfm?fuseaction=detail&id=720133918&myzip=95814&distance=3500,LEA,"12916 Bentley Street Waterford, CA 95386",-120.757242,37.64226
167,Hughson Adult School,https://www.otan.us/caaeproviders/index.cfm?fuseaction=detail&id=9942&myzip=95814&distance=3500,Local Educational Agency (LEA),"7448 Fox Road Hughson, CA 95326",-120.858303,37.601046
168,Ohlone Community College District,https://www.otan.us/caaeproviders/index.cfm?fuseaction=detail&id=888888411&myzip=95814&distance=3500,Community College,"43600 Mission Boulevard Freemont, CA 94539",-121.91628,37.527638
169,Fremont Adult and Continuing Education,https://www.otan.us/caaeproviders/index.cfm?fuseaction=detail&id=760133108&myzip=95814&distance=3500,LEA,"4700 Calaveras Avenue Fremont, CA 94538",-121.990622,37.537767
170,Jackie Chan Senior Center,https://www.otan.us/caaeproviders/index.cfm?fuseaction=detail&id=10727&myzip=95814&distance=3500,,"5757 Geary Boulevard San Francisco, CA 94121",-122.481239,37.779943
171,Newark Adult Education,https://www.otan.us/caaeproviders/index.cfm?fuseaction=detail&id=10144&myzip=95814&distance=3500,Local Educational Agency (LEA),"35777 Cedar Blvd Newark, CA 94560",-122.03868,37.55082
172,Patterson Adult Education - Del Puerto HS,https://www.otan.us/caaeproviders/index.cfm?fuseaction=detail&id=9957&myzip=95814&distance=3500,Local Educational Agency (LEA),"640 M Street Patterson, CA 95363",-121.1396,37.47625
173,Patterson Adult School,https://www.otan.us/caaeproviders/index.cfm?fuseaction=detail&id=175030143&myzip=95814&distance=3500,LEA,"201 North Ninth Street Patterson, CA 95363",-121.135236,37.468417
174,JFCS Emigre / L'Chaim,https://www.otan.us/caaeproviders/index.cfm?fuseaction=detail&id=10457&myzip=95814&distance=3500,Community-based Organization,"2534 Judah Street San Francisco, CA 94122",-122.489378,37.761401
175,San Francisco Community College District,https://www.otan.us/caaeproviders/index.cfm?fuseaction=detail&id=888888400&myzip=95814&distance=3500,Community College,"50 Phelan Avenue E200 San Francisco, CA 94112",-122.45225,37.72432
176,Work Training Center,https://www.otan.us/caaeproviders/index.cfm?fuseaction=detail&id=99999905&myzip=95814&distance=3500,CBO,"2255 Fair Street Chico, CA 95928",-121.816963,39.718552
177,Lake Tahoe Unified School District/El Dorado CAAEP,https://www.otan.us/caaeproviders/index.cfm?fuseaction=detail&id=9614&myzip=95814&distance=3500,Local Educational Agency (LEA),"1021 Al Tahoe Blvd. South Lake Tahoe, CA 96150",-119.97248,38.93444
178,Lake Tahoe Community College District,https://www.otan.us/caaeproviders/index.cfm?fuseaction=detail&id=888888425&myzip=95814&distance=3500,Community College,"One College Drive South Lake Tahoe, CA 96150",-119.96,38.95
179,Paradise Adult Education,https://www.otan.us/caaeproviders/index.cfm?fuseaction=detail&id=10077&myzip=95814&distance=3500,Local Educational Agency (LEA),"645 Pearson Road Paradise, CA 95969",-121.609248,39.75259
180,Milpitas Adult Education,https://www.otan.us/caaeproviders/index.cfm?fuseaction=detail&id=10140&myzip=95814&distance=3500,Local Educational Agency (LEA),"1331 E. Calaveras Boulevard Bldg. 400 Milpitas, CA 95035",-121.883324,37.435959
181,Milpitas Unified School District,https://www.otan.us/caaeproviders/index.cfm?fuseaction=detail&id=10328&myzip=95814&distance=3500,Local Educational Agency (LEA),"1331 East Calaveras Boulevard, Building 100 Milpitas, CA 95035",-121.883324,37.435959
182,South San Francisco Adult Education,https://www.otan.us/caaeproviders/index.cfm?fuseaction=detail&id=9852&myzip=95814&distance=3500,Local Educational Agency (LEA),"825 Southwood Drive South San Francisco, CA 94080",-122.435977,37.649931
183,Turlock Adult School,https://www.otan.us/caaeproviders/index.cfm?fuseaction=detail&id=9953&myzip=95814&distance=3500,Local Educational Agency (LEA),"1574 E. Canal Drive Turlock, CA 95380",-120.827256,37.49896
184,Turlock Adult School,https://www.otan.us/caaeproviders/index.cfm?fuseaction=detail&id=395036868&myzip=95814&distance=3500,LEA,"1574 East Canal Drive Turlock, CA 95380",-120.827256,37.49896
185,Jefferson Adult Education,https://www.otan.us/caaeproviders/index.cfm?fuseaction=detail&id=10181&myzip=95814&distance=3500,Local Educational Agency (LEA),"699 Serramonte Boulevard Suite 111 Daly City, CA 94015",-122.477486,37.668041
186,Jefferson Union High School District Adult Education Division,https://www.otan.us/caaeproviders/index.cfm?fuseaction=detail&id=244133336&myzip=95814&distance=3500,LEA,"699 Serramonte Boulevard, Suite 111 Daly City, CA 94015",-122.477486,37.668041
187,San Mateo Adult School,https://www.otan.us/caaeproviders/index.cfm?fuseaction=detail&id=10126&myzip=95814&distance=3500,Local Educational Agency (LEA),"789 E Poplar Avenue San Mateo, CA 94401",-122.32884,37.57634
188,San Mateo Court and Community Schools Program,https://www.otan.us/caaeproviders/index.cfm?fuseaction=detail&id=10708&myzip=95814&distance=3500,,", CA 94065",-122.26,37.53
189,Skyline College,https://www.otan.us/caaeproviders/index.cfm?fuseaction=detail&id=994437816&myzip=95814&distance=3500,Community College,"3300 College Drive San Bruno, California 94066",-122.461647,37.63192
190,IIBA-RWC,https://www.otan.us/caaeproviders/index.cfm?fuseaction=detail&id=10376&myzip=95814&distance=3500,Community-based Organization,"2600 Middlefield Road Redwood City, CA 94063",-122.21318,37.477239
191,San Mateo County Community College District,https://www.otan.us/caaeproviders/index.cfm?fuseaction=detail&id=888888396&myzip=95814&distance=3500,Community College,"3401 CSM Drive San Mateo, CA 94402",-122.336723,37.533112
192,College of San Mateo,https://www.otan.us/caaeproviders/index.cfm?fuseaction=detail&id=994437809&myzip=95814&distance=3500,Community College,"1700 West Hillsdale Blvd. San Mateo, California 94402",-122.33402,37.5317
193,Greendell Campus,https://www.otan.us/caaeproviders/index.cfm?fuseaction=detail&id=10706&myzip=95814&distance=3500,,"4120 Middlefield Road Palo Alto, , CA 94303",-122.10561,37.41727
194,San Mateo County Reads and East Palo Alto Public Library,https://www.otan.us/caaeproviders/index.cfm?fuseaction=detail&id=99999932&myzip=95814&distance=3500,Public Library,"2415 University Avenue, 2nd Floor East Palo Alto, CA 94303",-122.13956,37.47199
195,East Side  Adult Education,https://www.otan.us/caaeproviders/index.cfm?fuseaction=detail&id=10217&myzip=95814&distance=3500,Local Educational Agency (LEA),"625 Educational Park Drive San Jose, CA 95133",-121.858905,37.365577
196,Independence Adult Center,https://www.otan.us/caaeproviders/index.cfm?fuseaction=detail&id=10294&myzip=95814&distance=3500,Local Educational Agency (LEA),"625 Educational Park Drive San Jose, CA 95133",-121.858905,37.365577
197,Alum Rock Educational Foundation,https://www.otan.us/caaeproviders/index.cfm?fuseaction=detail&id=10563&myzip=95814&distance=3500,Community-based Organization,"P.O. Box 56178 San Jose, CA 95156",-121.85111,37.350619
198,Palo Alto Adult School,https://www.otan.us/caaeproviders/index.cfm?fuseaction=detail&id=10161&myzip=95814&distance=3500,Local Educational Agency (LEA),"50 Embarcadero Road Palo Alto, CA 94301",-122.156387,37.437148
199,Ca√±ada College,https://www.otan.us/caaeproviders/index.cfm?fuseaction=detail&id=994437806&myzip=95814&distance=3500,Community College,"4200 Farm Hill Blvd. Redwood City, California 94061",-122.260471,37.446806
200,Mountain View-Los Altos Adult Education,https://www.otan.us/caaeproviders/index.cfm?fuseaction=detail&id=10149&myzip=95814&distance=3500,Local Educational Agency (LEA),"333 Moffett Boulevard Mountain View, CA 94043",-122.075042,37.398561
201,Tahoe-Truckee Community Adult School,https://www.otan.us/caaeproviders/index.cfm?fuseaction=detail&id=9980&myzip=95814&distance=3500,Local Educational Agency (LEA),"11661 Donner Pass Road Truckee, CA 96161",-120.2116,39.32467
202,Sequoia District Adult School,https://www.otan.us/caaeproviders/index.cfm?fuseaction=detail&id=10132&myzip=95814&distance=3500,Local Educational Agency (LEA),"3247 Middlefield Road Menlo Park, CA 94025",-122.203079,37.471727
203,"Immigrant Resettlement &amp; Cultural Center, Inc.",https://www.otan.us/caaeproviders/index.cfm?fuseaction=detail&id=10551&myzip=95814&distance=3500,Community-based Organization,"1445 Koll Circle Suite 110 San Jose, CA 95112",-121.906341,37.365138
204,Newman-Crows Landing Adult School,https://www.otan.us/caaeproviders/index.cfm?fuseaction=detail&id=9938&myzip=95814&distance=3500,Local Educational Agency (LEA),"890 Main Street Newman, CA 95360",-121.02424,37.32023
205,Orland Joint Unified School District/Glenn CAAEP,https://www.otan.us/caaeproviders/index.cfm?fuseaction=detail&id=9643&myzip=95814&distance=3500,Collaboration,"1320 Sixth Street Orland, CA 95963",-122.197832,39.738029
206,Mission College,https://www.otan.us/caaeproviders/index.cfm?fuseaction=detail&id=994437852&myzip=95814&distance=3500,Community College,"3000 Mission College Blvd. Santa Clara, California 95054",-121.985652,37.390308
207,Delhi USD Adult Education,https://www.otan.us/caaeproviders/index.cfm?fuseaction=detail&id=9981&myzip=95814&distance=3500,Local Educational Agency (LEA),"9716 Hinton Avenue Delhi, CA 95315",-120.77871,37.429895
208,Delhi Adult,https://www.otan.us/caaeproviders/index.cfm?fuseaction=detail&id=662430122&myzip=95814&distance=3500,LEA,"10082 Vincent Avenue Delhi, CA 95315",-120.77599,37.435629
209,Overfelt Adult Center,https://www.otan.us/caaeproviders/index.cfm?fuseaction=detail&id=10035&myzip=95814&distance=3500,Local Educational Agency (LEA),"1901 Cunningham Avenue San Jose, CA 95122",-121.82833,37.33071
210,Cabrillo Adult School,https://www.otan.us/caaeproviders/index.cfm?fuseaction=detail&id=9943&myzip=95814&distance=3500,Local Educational Agency (LEA),"498 Kelly Avenue Half Moon Bay, CA 94019",-122.435558,37.462404
211,La Costa Adult School,https://www.otan.us/caaeproviders/index.cfm?fuseaction=detail&id=904130019&myzip=95814&distance=3500,LEA,"498 Kelly Avenue Half Moon Bay, CA 94019",-122.435558,37.462404
212,Santa Clara Adult Education,https://www.otan.us/caaeproviders/index.cfm?fuseaction=detail&id=10128&myzip=95814&distance=3500,Local Educational Agency (LEA),"1840 Benton Street Santa Clara, CA 95050",-121.955947,37.34535
213,Santa Clara Unified School District,https://www.otan.us/caaeproviders/index.cfm?fuseaction=detail&id=9270&myzip=95814&distance=3500,Local Educational Agency (LEA),"1840 Benton Street Santa Clara, CA 95051",-121.95468,37.34719
214,San Jose-Evergreen Community College District,https://www.otan.us/caaeproviders/index.cfm?fuseaction=detail&id=888888398&myzip=95814&distance=3500,Community College,"4750 San Felipe Road San Jose, CA 95135",-121.76946,37.300995
215,Evergreen Valley College,https://www.otan.us/caaeproviders/index.cfm?fuseaction=detail&id=994437850&myzip=95814&distance=3500,Community College,"3095 Yerba Buena Road San Jose, California 95135",-121.762848,37.297951
216,"FUHSD Adult School, Sunnyvale-Cupertino",https://www.otan.us/caaeproviders/index.cfm?fuseaction=detail&id=10229&myzip=95814&distance=3500,Local Educational Agency (LEA),"10123 North Wolfe Road Suite 2085 Cupertino, CA 94087",-122.013744,37.326947
217,Fremont Union High School District Adult School,https://www.otan.us/caaeproviders/index.cfm?fuseaction=detail&id=684332433&myzip=95814&distance=3500,LEA,"591 West Fremont Avenue Sunnyvale, CA 94087",-122.035169,37.352585
218,Campbell Adult and Community Education,https://www.otan.us/caaeproviders/index.cfm?fuseaction=detail&id=11061&myzip=95814&distance=3500,Local Educational Agency (LEA),"3235 Union Avenue San Jose, CA 95128",-121.93153,37.26431
219,San Jose City College,https://www.otan.us/caaeproviders/index.cfm?fuseaction=detail&id=994437851&myzip=95814&distance=3500,Community College,"2100 Moorpark Avenue San Jose, California 95128",-121.927403,37.314618
220,Foothill-DeAnza Community College District,https://www.otan.us/caaeproviders/index.cfm?fuseaction=detail&id=888888432&myzip=95814&distance=3500,Community College,"12345 El Monte Road Los Altos Hills, CA 94022",-122.122353,37.35973
221,Foothill College,https://www.otan.us/caaeproviders/index.cfm?fuseaction=detail&id=888888675&myzip=95814&distance=3500,Community College,"12345 El Monte Road Los Altos Hills, CA 94022",-122.122353,37.35973
222,De Anza College,https://www.otan.us/caaeproviders/index.cfm?fuseaction=detail&id=888888676&myzip=95814&distance=3500,Community College,"21250 Stevens Creek Boulevard Cupertino, CA 95014",-122.044628,37.31928
223,Foothill-DeAnza Community College District - De Anza College,https://www.otan.us/caaeproviders/index.cfm?fuseaction=detail&id=888888677&myzip=95814&distance=3500,Community College,"21250 Stevens Creek Boulevard 1250 Stevens Creek Blvd Cupertino, CA 95014",-122.044628,37.31928
224,MetroED - Silicon Valley Adult Education,https://www.otan.us/caaeproviders/index.cfm?fuseaction=detail&id=10714&myzip=95814&distance=3500,,"760 Hillsdale Avenue Room 1 San Jose, CA 95136",-121.865447,37.278012
225,Silicon Valley Career Technical Education Center,https://www.otan.us/caaeproviders/index.cfm?fuseaction=detail&id=944395018&myzip=95814&distance=3500,LEA,"760 Hillsdale Avenue San Jose, CA 95136",-121.865447,37.278012
226,SCCLD Services and Support Center,https://www.otan.us/caaeproviders/index.cfm?fuseaction=detail&id=10801&myzip=95814&distance=3500,,"1370 Dell Avenue Campbell, CA 95008",-121.953762,37.266135
227,California Community Opportunities,https://www.otan.us/caaeproviders/index.cfm?fuseaction=detail&id=10793&myzip=95814&distance=3500,,"3315 Almaden Expressway, Suite #20 San Jose, CA 95118",-121.879331,37.273769
228,work2future ,https://www.otan.us/caaeproviders/index.cfm?fuseaction=detail&id=99999931&myzip=95814&distance=3500,Local Public Agency,"1601 Foxworthy Ave San Jose, CA 95118",-121.903419,37.27142
229,Plumas Rural Services/Mohawk Community Resource Center,https://www.otan.us/caaeproviders/index.cfm?fuseaction=detail&id=99999910&myzip=95814&distance=3500,CBO,"8989 Highway 89 Blairsden, CA 96103",-120.621124,39.7734773
230,Metro Education District,https://www.otan.us/caaeproviders/index.cfm?fuseaction=detail&id=664337184&myzip=95814&distance=3500,LEA,"760 Hillsdale Avenue San Jose, CA 95123",-121.86471,37.27972
231,Hope Services,https://www.otan.us/caaeproviders/index.cfm?fuseaction=detail&id=99999930&myzip=95814&distance=3500,CBO,"30 Las Colinas Lane San Jose, CA 95119",-121.776862,37.238202
232,West Valley-Mission Community College District,https://www.otan.us/caaeproviders/index.cfm?fuseaction=detail&id=888888379&myzip=95814&distance=3500,Community College,"14000 Fruitvale Avenue Campbell, CA 95070",-122.01378,37.26531
233,Plumas Rural Services/Child Care Resource & Referral,https://www.otan.us/caaeproviders/index.cfm?fuseaction=detail&id=99999907&myzip=95814&distance=3500,CBO,"711 East Main Street Quincy, CA 95971",-120.924744,39.935442
234,"Plumas Rural Services/Women, Infants & Children",https://www.otan.us/caaeproviders/index.cfm?fuseaction=detail&id=99999908&myzip=95814&distance=3500,,"711 East Main Street Quincy, CA 95971",-120.924744,39.935442
235,Plumas Rural Services/Domestic Violence Services,https://www.otan.us/caaeproviders/index.cfm?fuseaction=detail&id=99999909&myzip=95814&distance=3500,CBO,"711 East Main Street Quincy, CA 95971",-120.924744,39.935442
236,Plumas Rural Services/Family Empowerment Center,https://www.otan.us/caaeproviders/index.cfm?fuseaction=detail&id=99999911&myzip=95814&distance=3500,CBO,"711 East Main Street Quincy, CA 95971",-120.924744,39.935442
237,Plumas Crisis Intervention & Resource Center,https://www.otan.us/caaeproviders/index.cfm?fuseaction=detail&id=99999912&myzip=95814&distance=3500,CBO,"591 Main Street Quincy, CA 95971",-120.949882,39.937095
238,Plumas Early Education & Child Care Council,https://www.otan.us/caaeproviders/index.cfm?fuseaction=detail&id=99999913&myzip=95814&distance=3500,Local Public Agency,"1446 East Main Street Quincy, CA 95971",-120.911484,39.934157
239,Alliance for Workforce Development,https://www.otan.us/caaeproviders/index.cfm?fuseaction=detail&id=99999914&myzip=95814&distance=3500,Local Public Agency,"7 Quincy Junction Road Quincy, CA 95971",-120.938049,39.93832
240,Plumas County Public Health Agency,https://www.otan.us/caaeproviders/index.cfm?fuseaction=detail&id=99999915&myzip=95814&distance=3500,Local Public Agency,"270 County Hospital Road Suite 206 Quincy, CA 95971",-120.964178,39.951948
241,Plumas Rural Services/Alive,https://www.otan.us/caaeproviders/index.cfm?fuseaction=detail&id=99999916&myzip=95814&distance=3500,CBO,"586 Jackson Street Quincy, CA 95971",-120.949695,39.935581
242,Plumas Rural Services/Family Child Care Home Education Network,https://www.otan.us/caaeproviders/index.cfm?fuseaction=detail&id=99999917&myzip=95814&distance=3500,CBO,"711 East Main Street Quincy, CA 95971",-120.924744,39.935442
243,Feather River Community College District,https://www.otan.us/caaeproviders/index.cfm?fuseaction=detail&id=888888433&myzip=95814&distance=3500,Community College,"570 Golden Eagle Avenue Quincy, CA 95971",-120.973041,39.951947
244,Corning USD Adult School,https://www.otan.us/caaeproviders/index.cfm?fuseaction=detail&id=10206&myzip=95814&distance=3500,Local Educational Agency (LEA),"250  E Fig Lane Corning, CA 96021",-122.165447,39.921539
245,Gustine Adult School,https://www.otan.us/caaeproviders/index.cfm?fuseaction=detail&id=9924&myzip=95814&distance=3500,Local Educational Agency (LEA),"685 Wallis Avenue, Room A-6 Gustine, CA 95322",-121.001059,37.251834
246,Ukiah Adult School,https://www.otan.us/caaeproviders/index.cfm?fuseaction=detail&id=152334928&myzip=95814&distance=3500,,", 95482",-123.215087,39.161013
247,Mendocino-Lake Community College District,https://www.otan.us/caaeproviders/index.cfm?fuseaction=detail&id=888888419&myzip=95814&distance=3500,Community College,"1000 Hensley Creek Road Ukiah, CA 95482",-123.227844,39.188149
248,Morgan Hill Community Adult School,https://www.otan.us/caaeproviders/index.cfm?fuseaction=detail&id=10148&myzip=95814&distance=3500,Local Educational Agency (LEA),"17960 Monterey Road Morgan Hill, CA 95037",-121.658519,37.136392
249,Community Adult,https://www.otan.us/caaeproviders/index.cfm?fuseaction=detail&id=834330072&myzip=95814&distance=3500,LEA,"17960 Monterey Road Morgan Hill, CA 95037",-121.658519,37.136392
250,Merced Community College District,https://www.otan.us/caaeproviders/index.cfm?fuseaction=detail&id=888888418&myzip=95814&distance=3500,Community College,"3600 M Street Merced, CA 95348",-120.474425,37.335382
251,Merced Adult School,https://www.otan.us/caaeproviders/index.cfm?fuseaction=detail&id=9741&myzip=95814&distance=3500,Local Educational Agency (LEA),"50 E. 20th Street Merced, CA 95340",-120.473097,37.300081
252,Anderson Valley Adult School,https://www.otan.us/caaeproviders/index.cfm?fuseaction=detail&id=10237&myzip=95814&distance=3500,Local Educational Agency (LEA),"12300 Anderson Valley Way Boonville, CA 95415",-123.388185,39.029411
253,Gilroy Adult Education,https://www.otan.us/caaeproviders/index.cfm?fuseaction=detail&id=9904&myzip=95814&distance=3500,Local Educational Agency (LEA),"7810 Arroyo Circle Gilroy, CA 95020",-121.5622,37.02201
254,Gilroy Citizenship/Educational Programs,https://www.otan.us/caaeproviders/index.cfm?fuseaction=detail&id=10532&myzip=95814&distance=3500,Community-based Organization,"379 Tomkins Ct. 2nd. Floor Gilroy, CA 95020",-121.57359,37.02926
255,Gavilan Joint Community College District,https://www.otan.us/caaeproviders/index.cfm?fuseaction=detail&id=888888431&myzip=95814&distance=3500,Community College,"5055 Santa Teresa Boulevard Gilroy, CA 95020",-121.56185,36.96667
256,Los Banos Adult School,https://www.otan.us/caaeproviders/index.cfm?fuseaction=detail&id=9979&myzip=95814&distance=3500,Local Educational Agency (LEA),"127 Seventh Street Los Banos, CA 93635",-120.841846,37.066861
257,Cabrillo Community College District,https://www.otan.us/caaeproviders/index.cfm?fuseaction=detail&id=888888444&myzip=95814&distance=3500,Community College,"6500 Soquel Drive Aptos, CA 95003",-121.924638,36.985281
258,Walnut Avenue Women's Center,https://www.otan.us/caaeproviders/index.cfm?fuseaction=detail&id=10459&myzip=95814&distance=3500,Community-based Organization,"303 Walnut Avenue Santa Cruz, CA 95060",-122.03092,36.972294
259,Watsonville/Aptos/Santa Cruz Adult Education,https://www.otan.us/caaeproviders/index.cfm?fuseaction=detail&id=10164&myzip=95814&distance=3500,Local Educational Agency (LEA),"294 Green Valley Road Watsonville, CA 95076",-121.768762,36.939186
260,Watsonville/Aptos Adult Education,https://www.otan.us/caaeproviders/index.cfm?fuseaction=detail&id=994437802&myzip=95814&distance=3500,LEA,"294 Green Valley Road Watsonville, CA 95076",-121.768762,36.939186
261,Santa Cruz Adult School,https://www.otan.us/caaeproviders/index.cfm?fuseaction=detail&id=10129&myzip=95814&distance=3500,Local Educational Agency (LEA),"319 La Fonda Avenue Santa Cruz, CA 95062",-121.996238,36.987791
262,Volunteer Center of Santa Cruz County,https://www.otan.us/caaeproviders/index.cfm?fuseaction=detail&id=10394&myzip=95814&distance=3500,Community-based Organization,"1740 17th Street Santa Cruz, CA 95062",-121.98258,36.97697
263,Willits Adult Education,https://www.otan.us/caaeproviders/index.cfm?fuseaction=detail&id=9949&myzip=95814&distance=3500,Local Educational Agency (LEA),"120 North Main Street Willits, CA 95490",-123.35484,39.41454
264,Richleiu Hall,https://www.otan.us/caaeproviders/index.cfm?fuseaction=detail&id=10446&myzip=95814&distance=3500,Local Educational Agency (LEA),"1135 Lincoln Red Bluff, CA 96080",-122.24572,40.17839
265,Red Bluff Joint Union High School District Adult Education,https://www.otan.us/caaeproviders/index.cfm?fuseaction=detail&id=390133140&myzip=95814&distance=3500,LEA,"1050 Kimball Road Red Bluff, CA 96080",-122.242046,40.15831
266,San Benito Adult Education,https://www.otan.us/caaeproviders/index.cfm?fuseaction=detail&id=9975&myzip=95814&distance=3500,Local Educational Agency (LEA),"1220 Monterey Street Hollister, CA 95023",-121.404629,36.841223
267,Dos Palos Adult,https://www.otan.us/caaeproviders/index.cfm?fuseaction=detail&id=172430221&myzip=95814&distance=3500,LEA,"22368 South Sixth Street South Dos Palos, CA 93665",-120.653951,36.962206
268,Chowchilla Adult School,https://www.otan.us/caaeproviders/index.cfm?fuseaction=detail&id=10011&myzip=95814&distance=3500,Local Educational Agency (LEA),"805 Humboldt Avenue Chowchilla, CA 93610",-120.26337,37.11578
269,Eastern Sierra Unified School District / Mono CAAEP,https://www.otan.us/caaeproviders/index.cfm?fuseaction=detail&id=10305&myzip=95814&distance=3500,Collaboration,"231 Kingsley Road Bridgeport, CA 93517",-119.47,38.35
270,North Monterey County Adult Education,https://www.otan.us/caaeproviders/index.cfm?fuseaction=detail&id=9982&myzip=95814&distance=3500,Local Educational Agency (LEA),"17500 Pesante Road Salinas, CA 93907",-121.668804,36.775794
271,Fort Sage Adult Education,https://www.otan.us/caaeproviders/index.cfm?fuseaction=detail&id=360124537&myzip=95814&distance=3500,LEA,"200 DS Hall S. Herlong, CA 96113",-120.133327,40.144158
272,Salinas Adult School,https://www.otan.us/caaeproviders/index.cfm?fuseaction=detail&id=10615&myzip=95814&distance=3500,Local Educational Agency (LEA),"20 Sherwood Place Salinas, CA 93906",-121.644995,36.686268
273,Hebbron Heights Community Center,https://www.otan.us/caaeproviders/index.cfm?fuseaction=detail&id=10458&myzip=95814&distance=3500,Community-based Organization,"683 Fremont St. Salinas, CA 93905",-121.632492,36.678062
274,Firebaugh-Las Deltas Adult,https://www.otan.us/caaeproviders/index.cfm?fuseaction=detail&id=91030568&myzip=95814&distance=3500,LEA,"1976 Morris Kyle Drive Firebaugh, CA 93622",-120.444664,36.844344
275,Yosemite Adult Education,https://www.otan.us/caaeproviders/index.cfm?fuseaction=detail&id=9940&myzip=95814&distance=3500,Local Educational Agency (LEA),"50200 Road 427 Oakhurst, CA 93644",-119.631235,37.327933
276,Yosemite Community Education Center/Adult,https://www.otan.us/caaeproviders/index.cfm?fuseaction=detail&id=142030062&myzip=95814&distance=3500,LEA,"50200 Road 427 Oakhurst, CA 93644",-119.631235,37.327933
277,Hartnell Community College District,https://www.otan.us/caaeproviders/index.cfm?fuseaction=detail&id=888888428&myzip=95814&distance=3500,Community College,"411 Central Avenue Salinas, CA 93901",-121.666079,36.674898
278,Earl Warren Adult School,https://www.otan.us/caaeproviders/index.cfm?fuseaction=detail&id=10503&myzip=95814&distance=3500,State Agency,"711-045 Center Road Susanville, CA 96127",-120.65194,40.416391
279,Diploma Gold Adult School,https://www.otan.us/caaeproviders/index.cfm?fuseaction=detail&id=10679&myzip=95814&distance=3500,Local Educational Agency (LEA),"55 South Weatherlow Susanville, CA 96130",-120.657896,40.417013
280,Lassen Community College District,https://www.otan.us/caaeproviders/index.cfm?fuseaction=detail&id=888888424&myzip=95814&distance=3500,Community College,"PO Box 3000 Susanville, CA 96130",-120.65,40.42
281,Madera Adult School,https://www.otan.us/caaeproviders/index.cfm?fuseaction=detail&id=10134&myzip=95814&distance=3500,Local Educational Agency (LEA),"2037 West Cleveland Avenue Madera, CA 93637",-120.080588,36.976919
282,Golden Valley Adult,https://www.otan.us/caaeproviders/index.cfm?fuseaction=detail&id=802030195&myzip=95814&distance=3500,LEA,"12150 Road 36 Madera, CA 93636",-119.899245,36.926569
283,Coastal Adult School,https://www.otan.us/caaeproviders/index.cfm?fuseaction=detail&id=9750&myzip=95814&distance=3500,Local Educational Agency (LEA),"250 So. Sanderson Way Fort Bragg, CA 95437",-123.79087,39.43965
284,Anderson Adult School,https://www.otan.us/caaeproviders/index.cfm?fuseaction=detail&id=10236&myzip=95814&distance=3500,Local Educational Agency (LEA),"5250 West Anderson Drive Room 2 Anderson, CA 96007",-122.304956,40.440132
285,Monterey Adult School - Juan Cabrillo School,https://www.otan.us/caaeproviders/index.cfm?fuseaction=detail&id=10146&myzip=95814&distance=3500,Local Educational Agency (LEA),"1295 La Salle Avenue Seaside,   93955",-121.83988,36.61704
286,Monterey Adult School - Marina Vista,https://www.otan.us/caaeproviders/index.cfm?fuseaction=detail&id=10672&myzip=95814&distance=3500,Local Educational Agency (LEA),"1295 La Salle Avenue Seaside, CA 93955",-121.83988,36.61704
287,Naval Postgraduate School,https://www.otan.us/caaeproviders/index.cfm?fuseaction=detail&id=10810&myzip=95814&distance=3500,,"1295 La Salle Avenue Seaside, CA 93955",-121.83988,36.61704
288,Dual Language Academy of the Monterey Peninsula,https://www.otan.us/caaeproviders/index.cfm?fuseaction=detail&id=11047&myzip=95814&distance=3500,,"1295 La Salle Avenue Seaside, CA 93955",-121.83988,36.61704
289,Monterey Adult School,https://www.otan.us/caaeproviders/index.cfm?fuseaction=detail&id=922732501&myzip=95814&distance=3500,LEA,"200 Coe Avenue Monterey, CA 93955",-121.83488,36.62952
290,Pacific Grove Adult School,https://www.otan.us/caaeproviders/index.cfm?fuseaction=detail&id=10160&myzip=95814&distance=3500,Local Educational Agency (LEA),"1025 Lighthouse Avenue Pacific Grove, CA 93950",-121.92817,36.62615
291,Monterey Peninsula Community College District,https://www.otan.us/caaeproviders/index.cfm?fuseaction=detail&id=888888416&myzip=95814&distance=3500,Community College,"980 Fremont Street Monterey, CA 93940",-121.884845,36.589984
292,Mendota Unified Adult Education,https://www.otan.us/caaeproviders/index.cfm?fuseaction=detail&id=9984&myzip=95814&distance=3500,Local Educational Agency (LEA),"211 Smoot Avenue Mendota, CA 93640",-120.388092,36.755187
293,Gonzales Evening High School,https://www.otan.us/caaeproviders/index.cfm?fuseaction=detail&id=10172&myzip=95814&distance=3500,Local Educational Agency (LEA),"650 Elko Street Gonzales, CA 93926",-121.442902,36.511833
294,Shasta-Tehama-Trinity Joint Community College District,https://www.otan.us/caaeproviders/index.cfm?fuseaction=detail&id=888888391&myzip=95814&distance=3500,Community College,"PO Box 496006 Redding, CA 96049",-123.306185,41.773136
295,Shasta College,https://www.otan.us/caaeproviders/index.cfm?fuseaction=detail&id=994437825&myzip=95814&distance=3500,Community College,"11555 Old Oregon Trail Redding, California 96049",-122.3084,40.62139
296,Shasta Adult School,https://www.otan.us/caaeproviders/index.cfm?fuseaction=detail&id=10133&myzip=95814&distance=3500,Local Educational Agency (LEA),"2200 Eureka Way Redding , CA 96001",-122.408219,40.588707
297,Corning Family Resource Center,https://www.otan.us/caaeproviders/index.cfm?fuseaction=detail&id=10467&myzip=95814&distance=3500,Community-based Organization,"from West Street School Corning, CA 96001",-122.3956822,40.5779086
298,Shasta Literacy Program,https://www.otan.us/caaeproviders/index.cfm?fuseaction=detail&id=99999938&myzip=95814&distance=3500,Public Library,"1100 Parkview Avenue Redding, CA 96001",-122.38519,40.573865
299,Soledad Adult School,https://www.otan.us/caaeproviders/index.cfm?fuseaction=detail&id=10278&myzip=95814&distance=3500,Local Educational Agency (LEA),"690 Main Street Soledad, CA 93960",-121.323531,36.434097
300,Clovis Community College,https://www.otan.us/caaeproviders/index.cfm?fuseaction=detail&id=994437843&myzip=95814&distance=3500,Community College,"10309 N. Willow Avenue Fresno, California 93730",-119.734194,36.886137
301,Central Learning Adult School Site,https://www.otan.us/caaeproviders/index.cfm?fuseaction=detail&id=10692&myzip=95814&distance=3500,Local Educational Agency (LEA),"2698 N. Brawley Avenue Fresno, CA 93722",-119.861665,36.7778
302,Kings View Work Experience Center,https://www.otan.us/caaeproviders/index.cfm?fuseaction=detail&id=99999923&myzip=95814&distance=3500,CBO,"7170 N. Financial Drive Suite 110 Fresno, CA 93720",-119.770883,36.840271
303,Fresno City College,https://www.otan.us/caaeproviders/index.cfm?fuseaction=detail&id=994437845&myzip=95814&distance=3500,Community College,"1101 E. University Avenue Fresno, California 93741",-119.7994,36.76688
304,State Center Community College District,https://www.otan.us/caaeproviders/index.cfm?fuseaction=detail&id=888888384&myzip=95814&distance=3500,Community College,"1525 E. Weldon Avenue Fresno, CA 93704",-119.792766,36.769
305,Carmel Adult School,https://www.otan.us/caaeproviders/index.cfm?fuseaction=detail&id=10270&myzip=95814&distance=3500,Local Educational Agency (LEA),"8421 Carmel Valley Road Carmel, CA 93923",-121.828584,36.530566
306,Clovis Adult Education,https://www.otan.us/caaeproviders/index.cfm?fuseaction=detail&id=10202&myzip=95814&distance=3500,Local Educational Agency (LEA),"1452 David E. Cook Way Clovis, CA 93611",-119.690292,36.834605
307,SER for Jobs ,https://www.otan.us/caaeproviders/index.cfm?fuseaction=detail&id=99999947&myzip=95814&distance=3500,CBO,"255 North Fulton Suite 106 Fresno, CA 93701",-119.8007,36.746968
308,Washington Union High School Adult School,https://www.otan.us/caaeproviders/index.cfm?fuseaction=detail&id=10059&myzip=95814&distance=3500,Local Educational Agency (LEA),"6041 S. Elm Avenue Fresno, CA 93706",-119.793018,36.648175
309,Fresno Public Library,https://www.otan.us/caaeproviders/index.cfm?fuseaction=detail&id=99999948&myzip=95814&distance=3500,Public Library,"2420 Mariposa Street Fresno, CA 93721",-119.785964,36.737717
310,Fresno Adult,https://www.otan.us/caaeproviders/index.cfm?fuseaction=detail&id=661032309&myzip=95814&distance=3500,LEA,"2500 Stanislaus Street Fresno, CA 93721",-119.789138,36.74205
311,Black Mountain Adult Education Center,https://www.otan.us/caaeproviders/index.cfm?fuseaction=detail&id=9764&myzip=95814&distance=3500,Local Educational Agency (LEA),"33461 Lodge Road Toll  House, CA 93667",-119.4555,37.04012
312,Mountain Valley Adult Education,https://www.otan.us/caaeproviders/index.cfm?fuseaction=detail&id=10080&myzip=95814&distance=3500,Local Educational Agency (LEA),"231 Oak Street Hayfork, CA 96041",-123.19,40.55
313,MonoCOE Adult Education Program,https://www.otan.us/caaeproviders/index.cfm?fuseaction=detail&id=10559&myzip=95814&distance=3500,Collaboration,"Box 130 400 Sierra Park Road Mammoth Lakes, CA 93546",-118.9641605,37.6418577
314,Sanger Adult School,https://www.otan.us/caaeproviders/index.cfm?fuseaction=detail&id=10066&myzip=95814&distance=3500,Local Educational Agency (LEA),"1045 Bethel Sanger, CA 93657",-119.576247,36.701116
315,Valley ROP,https://www.otan.us/caaeproviders/index.cfm?fuseaction=detail&id=531095017&myzip=95814&distance=3500,LEA,"1305 Q Street Sanger, CA 93657",-119.560445,36.69853
316,Trinity Adult School,https://www.otan.us/caaeproviders/index.cfm?fuseaction=detail&id=10094&myzip=95814&distance=3500,Local Educational Agency (LEA),"321 Victory Lane Weaverville, CA 96093",-122.94782,40.739618
317,Caruthers Adult School,https://www.otan.us/caaeproviders/index.cfm?fuseaction=detail&id=10359&myzip=95814&distance=3500,Local Educational Agency (LEA),"2580 West Tahoe Caruthers, CA 93609",-119.83818,36.53862
318,"College of the Redwoods, Garberville",https://www.otan.us/caaeproviders/index.cfm?fuseaction=detail&id=10800&myzip=95814&distance=3500,,"286 Sprowl Creek Rd. Garberville, CA 95542",-123.797523,40.098289
319,Parlier Adult School/San Joaquin Valley HS,https://www.otan.us/caaeproviders/index.cfm?fuseaction=detail&id=9930&myzip=95814&distance=3500,Local Educational Agency (LEA),"900 South Newmark Avenue Parlier, CA 93648",-119.528262,36.618681
320,Selma Adult School,https://www.otan.us/caaeproviders/index.cfm?fuseaction=detail&id=10131&myzip=95814&distance=3500,Local Educational Agency (LEA),"3125 Wright Street Selma, CA 93662",-119.615895,36.581073
321,Bridgeville Elementary School,https://www.otan.us/caaeproviders/index.cfm?fuseaction=detail&id=10410&myzip=95814&distance=3500,Community-based Organization,"38717 Kneeland Road Bridgeville, CA 95526",-123.796533,40.472625
322,Southern Trinity Joint Unified School District,https://www.otan.us/caaeproviders/index.cfm?fuseaction=detail&id=994437856&myzip=95814&distance=3500,Local Educational Agency (LEA),"680 Van Duzen Road Mad River, California 95526",-123.528107,40.456139
323,Kings Canyon USD Adult School,https://www.otan.us/caaeproviders/index.cfm?fuseaction=detail&id=10186&myzip=95814&distance=3500,Local Educational Agency (LEA),"740 W. North Ave. REEDLEY, CA 93654",-119.455811,36.601146
324,Reedley College,https://www.otan.us/caaeproviders/index.cfm?fuseaction=detail&id=994437847&myzip=95814&distance=3500,Community College,"995 N. Reed Avenue Reedley, California 93654",-119.458189,36.604518
325,Kingsburg Adult Education - Oasis Continuation,https://www.otan.us/caaeproviders/index.cfm?fuseaction=detail&id=10000&myzip=95814&distance=3500,Local Educational Agency (LEA),"2311 Sierra Street Kingsburg, CA 93631",-119.545999,36.518178
326,West Hills Community College District,https://www.otan.us/caaeproviders/index.cfm?fuseaction=detail&id=888888669&myzip=95814&distance=3500,Community College,"9900 Cody St. Coalinga, CA 93210",-120.2543,36.24234
327,West Hills College Coalinga,https://www.otan.us/caaeproviders/index.cfm?fuseaction=detail&id=994437849&myzip=95814&distance=3500,Community College,"300 Cherry Lane Coalinga, California 93210",-120.356482,36.147908
328,Lemoore Adult,https://www.otan.us/caaeproviders/index.cfm?fuseaction=detail&id=820133512&myzip=95814&distance=3500,LEA,"351 East Bush Street Lemoore, CA 93245",-119.776323,36.297848
329,West Hills College Lemoore,https://www.otan.us/caaeproviders/index.cfm?fuseaction=detail&id=994437848&myzip=95814&distance=3500,Community College,"555 College Avenue Lemoore, California 93245",-119.822379,36.292439
330,Dinuba Adult School,https://www.otan.us/caaeproviders/index.cfm?fuseaction=detail&id=9973&myzip=95814&distance=3500,Local Educational Agency (LEA),"8470 Ave 406 Dinuba, CA 93618",-119.384143,36.528119
331,Family Education Center,https://www.otan.us/caaeproviders/index.cfm?fuseaction=detail&id=600111450&myzip=95814&distance=3500,LEA,"40802 Road 128 Cutler, CA 93615",-119.286385,36.530658
332,Hanford Adult School,https://www.otan.us/caaeproviders/index.cfm?fuseaction=detail&id=10176&myzip=95814&distance=3500,Local Educational Agency (LEA),"905 North Campus Drive Hanford, CA 93230",-119.66318,36.33375
333,Cutler-Orosi Adult School,https://www.otan.us/caaeproviders/index.cfm?fuseaction=detail&id=10208&myzip=95814&distance=3500,Local Educational Agency (LEA),"12623 Avenue 416 Orosi, CA 93647",-119.290932,36.544528
334,Dunsmuir Adult,https://www.otan.us/caaeproviders/index.cfm?fuseaction=detail&id=504730172&myzip=95814&distance=3500,LEA,"5805 High School Way Dunsmuir, CA 96025",-122.276581,41.21072
335,Reef-Sunset USD Avenal Adult,https://www.otan.us/caaeproviders/index.cfm?fuseaction=detail&id=10108&myzip=95814&distance=3500,Local Educational Agency (LEA),"205 N. Park Avenal, CA 93204",-120.125338,36.008327
336,Golden Hills Adult School,https://www.otan.us/caaeproviders/index.cfm?fuseaction=detail&id=10502&myzip=95814&distance=3500,State Agency,"#1 Kings Way Avenal, CA 93204",-122.477684,37.721436
337,"Proteus, Inc.",https://www.otan.us/caaeproviders/index.cfm?fuseaction=detail&id=10418&myzip=95814&distance=3500,Community-based Organization,"1440 N. Shirk Rd. Visalia, CA 93291",-119.367006,36.342752
338,Tulare County Training Center (ABLE Industries),https://www.otan.us/caaeproviders/index.cfm?fuseaction=detail&id=99999937&myzip=95814&distance=3500,CBO,"8929 W. Goshen Avenue Visalia, CA 93291",-119.38929,36.3419
339,Siskiyou Adult School,https://www.otan.us/caaeproviders/index.cfm?fuseaction=detail&id=9987&myzip=95814&distance=3500,Local Educational Agency (LEA),"720 Rockfellow Drive Mt. Shasta, CA 96067",-122.30496,41.31972
340,Sequoias Community College District,https://www.otan.us/caaeproviders/index.cfm?fuseaction=detail&id=888888392&myzip=95814&distance=3500,Community College,"915 S. Mooney Boulevard Visalia, CA 93277",-119.314117,36.322491
341,Fortuna Adult Education,https://www.otan.us/caaeproviders/index.cfm?fuseaction=detail&id=101230119&myzip=95814&distance=3500,LEA,"379 12th Street Fortuna, CA 95540",-124.152054,40.593665
342,Visalia Adult School,https://www.otan.us/caaeproviders/index.cfm?fuseaction=detail&id=9864&myzip=95814&distance=3500,Local Educational Agency (LEA),"3110 East Houston Avenue Visalia, CA 93292",-119.25896,36.34207
343,Woodlake Adult School,https://www.otan.us/caaeproviders/index.cfm?fuseaction=detail&id=9912&myzip=95814&distance=3500,Local Educational Agency (LEA),"450 West Sequoia Woodlake, CA 93286",-119.09449,36.42234
344,Farmersville USD  Adult Education,https://www.otan.us/caaeproviders/index.cfm?fuseaction=detail&id=10072&myzip=95814&distance=3500,Local Educational Agency (LEA),"281 S. Farmersville Boulevard Farmersville, CA 93223",-119.20732,36.29763
345,Corcoran Adult Ed./Kings Lake Education Ctr.,https://www.otan.us/caaeproviders/index.cfm?fuseaction=detail&id=9796&myzip=95814&distance=3500,Local Educational Agency (LEA),"1128 S.  Dairy Avenue 1520 Patterson Ave. Corcoran, CA 93212",-119.56686,36.102018
346,Tulare Adult School,https://www.otan.us/caaeproviders/index.cfm?fuseaction=detail&id=9859&myzip=95814&distance=3500,Local Educational Agency (LEA),"575 W. Maple Avenue Tulare, CA 93274",-119.35638,36.21436
347,Tulare Joint Union High School District,https://www.otan.us/caaeproviders/index.cfm?fuseaction=detail&id=10663&myzip=95814&distance=3500,Local Educational Agency (LEA),"426 North Blackstone Tulare, CA 93274",-119.330737,36.214163
348,Exeter Adult Education - Kawea HS,https://www.otan.us/caaeproviders/index.cfm?fuseaction=detail&id=9925&myzip=95814&distance=3500,Local Educational Agency (LEA),"1107 Rocky Hill Drive Exeter, CA 93221",-119.13121,36.29697
349,Siskiyou Joint Community College District,https://www.otan.us/caaeproviders/index.cfm?fuseaction=detail&id=888888389&myzip=95814&distance=3500,Community College,"800 College Avenue Weed, CA 96094",-122.391881,41.409483
350,College of the Siskiyous,https://www.otan.us/caaeproviders/index.cfm?fuseaction=detail&id=994437839&myzip=95814&distance=3500,Community College,"800 College Avenue Weed, California 96094",-122.391881,41.409483
351,Eureka Adult School,https://www.otan.us/caaeproviders/index.cfm?fuseaction=detail&id=10219&myzip=95814&distance=3500,Local Educational Agency (LEA),"2100 J Street Eureka, CA 95503",-124.159,40.7878
352,"College of the Redwoods, Eureka Campus",https://www.otan.us/caaeproviders/index.cfm?fuseaction=detail&id=10795&myzip=95814&distance=3500,,"7351 Tompkins Hill Road Eureka, CA 95501",-124.15711,40.791
353,"College of the Redwoods, Downtown Eureka",https://www.otan.us/caaeproviders/index.cfm?fuseaction=detail&id=10796&myzip=95814&distance=3500,,"333 Sixth Street, Suite B Eureka, CA 95501",-124.16753,40.8009
354,Redwoods Community College District,https://www.otan.us/caaeproviders/index.cfm?fuseaction=detail&id=888888405&myzip=95814&distance=3500,Community College,"7331 Tompkins Hill Road Eureka, CA 95501",-124.17,40.8
355,College of the Redwoods Adult Education,https://www.otan.us/caaeproviders/index.cfm?fuseaction=detail&id=888888661&myzip=95814&distance=3500,Community College,"7351 Tompkins Hill Road Eureka, CA 95501",-124.15711,40.791
356,Modoc Community Adult School,https://www.otan.us/caaeproviders/index.cfm?fuseaction=detail&id=10062&myzip=95814&distance=3500,Local Educational Agency (LEA),"802 N East Street Alturas, CA 96101",-120.53993,41.49098
357,Alturas,https://www.otan.us/caaeproviders/index.cfm?fuseaction=detail&id=10440&myzip=95814&distance=3500,COE,"Modoc County Office of Education 139 Henderson Street Alturas, CA 96101",-120.514677,41.438417
358,Northern Humboldt Adult School,https://www.otan.us/caaeproviders/index.cfm?fuseaction=detail&id=10013&myzip=95814&distance=3500,Local Educational Agency (LEA),"2755 McKinleyville Avenue McKinleyville, CA 95519",-124.11031,40.95504
359,Cambria Adult School,https://www.otan.us/caaeproviders/index.cfm?fuseaction=detail&id=10274&myzip=95814&distance=3500,Local Educational Agency (LEA),"2820 Santa Rosa Creek Road Cambria, CA 93428",-121.072714,35.568895
360,Lindsay Adult School,https://www.otan.us/caaeproviders/index.cfm?fuseaction=detail&id=10192&myzip=95814&distance=3500,Local Educational Agency (LEA),"519 E. Honolulu Street Lindsay, CA 93247",-119.085047,36.203689
361,Etna UHSD - Scott River Adult Education,https://www.otan.us/caaeproviders/index.cfm?fuseaction=detail&id=9961&myzip=95814&distance=3500,Local Educational Agency (LEA),"450 Campus Way Etna, CA 96027",-122.9,41.46
362,Scott Valley Adult,https://www.otan.us/caaeproviders/index.cfm?fuseaction=detail&id=550100008&myzip=95814&distance=3500,LEA,"450 Campus Way Etna, CA 96027",-122.9,41.46
363,"College of the Redwoods, Klamath Trinity",https://www.otan.us/caaeproviders/index.cfm?fuseaction=detail&id=10799&myzip=95814&distance=3500,,"65 Orchard St Hoopa, CA 95546",-123.65189,41.22591
364,Templeton Adult School,https://www.otan.us/caaeproviders/index.cfm?fuseaction=detail&id=9751&myzip=95814&distance=3500,Local Educational Agency (LEA),"964 Old County Road Templeton, CA 93465",-120.711425,35.544459
365,Porterville Adult School,https://www.otan.us/caaeproviders/index.cfm?fuseaction=detail&id=10104&myzip=95814&distance=3500,Local Educational Agency (LEA),"1414 W. Olive Ave Porterville, CA 93257",-119.048853,36.066672
366,Porterville College,https://www.otan.us/caaeproviders/index.cfm?fuseaction=detail&id=994437811&myzip=95814&distance=3500,Community College,"100 E. College Avenue Porterville, California 93257",-119.01255,36.049572
367,Butte Valley Adult Education,https://www.otan.us/caaeproviders/index.cfm?fuseaction=detail&id=9988&myzip=95814&distance=3500,Local Educational Agency (LEA),"13001-B Old State Hwy Macdoel, CA 96058",-122.0066,41.81774
368,Yreka Union High Adult School,https://www.otan.us/caaeproviders/index.cfm?fuseaction=detail&id=9758&myzip=95814&distance=3500,Local Educational Agency (LEA),"431 Knapp Street Yreka, CA 96097",-122.63629,41.73848
369,Delano Adult School,https://www.otan.us/caaeproviders/index.cfm?fuseaction=detail&id=10209&myzip=95814&distance=3500,Local Educational Agency (LEA),"1811 Princeton Street Delano, CA 93215",-119.23768,35.77069
370,Cuesta College,https://www.otan.us/caaeproviders/index.cfm?fuseaction=detail&id=10408&myzip=95814&distance=3500,Community College,"1504 Colusa Dr San Luis Obispo, CA 93405",-120.742674,35.323543
371,Tulelake Joint Unified School District,https://www.otan.us/caaeproviders/index.cfm?fuseaction=detail&id=9860&myzip=95814&distance=3500,Local Educational Agency (LEA),"400 G Street Tulelake, CA 96134",-121.479345,41.951004
372,San Luis Obispo County Community College District,https://www.otan.us/caaeproviders/index.cfm?fuseaction=detail&id=888888397&myzip=95814&distance=3500,Community College,"PO Box 8106 San Luis Obispo County, CA 93403",-120.6983506,35.7456417
373,Lone Pine Adult School,https://www.otan.us/caaeproviders/index.cfm?fuseaction=detail&id=9797&myzip=95814&distance=3500,Local Educational Agency (LEA),"536 South Main Street Lone Pine, CA 93545",-118.0580061,36.5839492
374,San Luis Coastal Adult School,https://www.otan.us/caaeproviders/index.cfm?fuseaction=detail&id=9967&myzip=95814&distance=3500,Local Educational Agency (LEA),"1500 Lizzie Street - H2 San Luis Obispo, CA 93401",-120.64963,35.27953
375,Wasco Adult Education - Independence HS,https://www.otan.us/caaeproviders/index.cfm?fuseaction=detail&id=10074&myzip=95814&distance=3500,Local Educational Agency (LEA),"1445 Poso Drive Wasco, CA 93280",-119.3418,35.58692
376,McFarland Adult Program,https://www.otan.us/caaeproviders/index.cfm?fuseaction=detail&id=9998&myzip=95814&distance=3500,Local Educational Agency (LEA),"599 Fifth Street McFarland, CA 93250",-119.234,35.68023
377,Lucia Mar Adult School,https://www.otan.us/caaeproviders/index.cfm?fuseaction=detail&id=10197&myzip=95814&distance=3500,Local Educational Agency (LEA),"1425 19th St. 1425 19th St. Oceano, CA 93445",-120.61066,35.10461
378,Shafter Site,https://www.otan.us/caaeproviders/index.cfm?fuseaction=detail&id=10421&myzip=95814&distance=3500,Community-based Organization,"341 State Avenue Shafter, CA 93263",-119.27327,35.501158
379,Kern Community College District,https://www.otan.us/caaeproviders/index.cfm?fuseaction=detail&id=888888426&myzip=95814&distance=3500,Community College,"2100 Chester Avenue Bakersfield, CA 93301",-119.01808,35.378421
380,Bakersfield College,https://www.otan.us/caaeproviders/index.cfm?fuseaction=detail&id=994437815&myzip=95814&distance=3500,Community College,"1801 Panorama Drive Bakersfield, California 93305",-118.972043,35.408263
381,Taft MCCF,https://www.otan.us/caaeproviders/index.cfm?fuseaction=detail&id=11066&myzip=95814&distance=3500,,"330 Commerce Way Taft, CA 93268",-119.44162,35.133941
382,West Kern Community College District,https://www.otan.us/caaeproviders/index.cfm?fuseaction=detail&id=888888380&myzip=95814&distance=3500,Community College,"29 Cougar Ct. Taft, CA 93268",-119.459198,35.150749
383,Taft College,https://www.otan.us/caaeproviders/index.cfm?fuseaction=detail&id=994437818&myzip=95814&distance=3500,Community College,"29 Cougar Court Taft, California 93268",-119.459198,35.150749
384,Del Norte USD Adult Education - Sunset HS,https://www.otan.us/caaeproviders/index.cfm?fuseaction=detail&id=10076&myzip=95814&distance=3500,Local Educational Agency (LEA),"301 W. Washington Blvd. Crescent City, CA 95531",-124.208397,41.770761
385,Del Norte Reads,https://www.otan.us/caaeproviders/index.cfm?fuseaction=detail&id=10412&myzip=95814&distance=3500,Public Library,"1080 Mason Mall Suite 8B Crescent City, CA 95531",-124.196757,41.751526
386,"College of the Redwoods, Del Norte Campus",https://www.otan.us/caaeproviders/index.cfm?fuseaction=detail&id=10798&myzip=95814&distance=3500,,"883 W. Washington Blvd Crescent City, CA 95531",-124.211112,41.770635
387,Central Coast Literacy Council,https://www.otan.us/caaeproviders/index.cfm?fuseaction=detail&id=10529&myzip=95814&distance=3500,Community-based Organization,"421 S. McClelland Street Santa Maria, CA 93454",-120.43492,34.948904
388,Workforce Resource Center,https://www.otan.us/caaeproviders/index.cfm?fuseaction=detail&id=99999902&myzip=95814&distance=3500,Local Public Agency,"1410 S Broadway # A Santa Maria, CA 93454",-120.0,37.0
389,Allan Hancock Joint Community College District,https://www.otan.us/caaeproviders/index.cfm?fuseaction=detail&id=888888631&myzip=95814&distance=3500,Community College,"800 S. College Dr. Santa Maria, CA 93454",-120.421476,34.943855
390,Bakersfield Adult School/Kern High School,https://www.otan.us/caaeproviders/index.cfm?fuseaction=detail&id=10184&myzip=95814&distance=3500,Local Educational Agency (LEA),"501 South Mount Vernon Avenue Bakersfield, CA 93307",-118.966879,35.349633
391,Lompoc Adult School,https://www.otan.us/caaeproviders/index.cfm?fuseaction=detail&id=10008&myzip=95814&distance=3500,Local Educational Agency (LEA),"320 North J Street Lompoc, CA 93436",-120.459056,34.643112
392,"Life Options, Vocational and Resource Center",https://www.otan.us/caaeproviders/index.cfm?fuseaction=detail&id=99999901&myzip=95814&distance=3500,CBO,"116 North I Street Lompoc, CA 93436",-120.458801,34.639703
393,Tehachapi Adult School,https://www.otan.us/caaeproviders/index.cfm?fuseaction=detail&id=10002&myzip=95814&distance=3500,Local Educational Agency (LEA),"400 South Snyder Tehachapi, CA 93561",-118.438606,35.127628
394,Farmworker Institute of Education & Leadership Development,https://www.otan.us/caaeproviders/index.cfm?fuseaction=detail&id=10422&myzip=95814&distance=3500,Community-based Organization,"122 E Tehachapi Blvd Suite C Tehachapi, CA 93561",-118.447052,35.13195
395,Sierra Sands Adult School - Mesquite HS,https://www.otan.us/caaeproviders/index.cfm?fuseaction=detail&id=9969&myzip=95814&distance=3500,Local Educational Agency (LEA),"140 W. Drummond Avenue Ridgecrest, CA 93555",-117.67118,35.63724
396,Sierra Sands Adult School,https://www.otan.us/caaeproviders/index.cfm?fuseaction=detail&id=421530070&myzip=95814&distance=3500,LEA,"348 Rowe Street Ridgecrest, CA 93555",-117.66417,35.63985
397,Cerro Coso Community College,https://www.otan.us/caaeproviders/index.cfm?fuseaction=detail&id=994437819&myzip=95814&distance=3500,Community College,"3000 College Heights Blvd. Ridgecrest, California 93555",-117.661273,35.567815
398,Wake Campus,https://www.otan.us/caaeproviders/index.cfm?fuseaction=detail&id=10406&myzip=95814&distance=3500,Community College,"300 N. Turnpike Rd. Santa Barbara, CA 93111",-119.78763,34.44498
399,Tri-Counties Regional Center,https://www.otan.us/caaeproviders/index.cfm?fuseaction=detail&id=99999935&myzip=95814&distance=3500,CBO,"520 East Montecito Street Santa Barbara, CA 93103",-119.68697,34.42037
400,Santa Barbara Community College District,https://www.otan.us/caaeproviders/index.cfm?fuseaction=detail&id=888888643&myzip=95814&distance=3500,Community College,"721 Cliff Drive Santa Barbara, CA 93109",-119.69873,34.40835
401,Mt. View Adult Education - Douglas HS,https://www.otan.us/caaeproviders/index.cfm?fuseaction=detail&id=9814&myzip=95814&distance=3500,Local Educational Agency (LEA),"3228 Douglas Avenue Mojave, CA 93501",-118.191488,35.059178
402,Kern County ROP,https://www.otan.us/caaeproviders/index.cfm?fuseaction=detail&id=651595057&myzip=95814&distance=3500,LEA,"15926 K Street Mojave, CA 93501",-118.17307,35.05358
403,Ojai Adult Education,https://www.otan.us/caaeproviders/index.cfm?fuseaction=detail&id=10067&myzip=95814&distance=3500,Local Educational Agency (LEA),"414 E. Ojai Avenue Ojai, CA 93023",-119.2412,34.44887
404,Antelope Valley Community College District,https://www.otan.us/caaeproviders/index.cfm?fuseaction=detail&id=888888447&myzip=95814&distance=3500,Community College,"3041 West Avenue K Lancaster, CA 93536",-118.184776,34.674938
405,Ventura County Community College District,https://www.otan.us/caaeproviders/index.cfm?fuseaction=detail&id=888888383&myzip=95814&distance=3500,Community College,"255 W. Stanley Avenue, Ste 150 Ventura, CA 93001",-119.298691,34.301642
406,Santa Paula Adult School,https://www.otan.us/caaeproviders/index.cfm?fuseaction=detail&id=9933&myzip=95814&distance=3500,Local Educational Agency (LEA),"404 N. 6th Street Santa Paula, CA 93060",-119.070732,34.355555
407,Santa Paula Adult Education,https://www.otan.us/caaeproviders/index.cfm?fuseaction=detail&id=285630140&myzip=95814&distance=3500,LEA,"333 North Palm Avenue Santa Paula, CA 93060",-119.073703,34.354412
408,Fillmore Adult,https://www.otan.us/caaeproviders/index.cfm?fuseaction=detail&id=540133652&myzip=95814&distance=3500,LEA,"615 Shiells Drive Fillmore, CA 93015",-118.9173,34.40485
409,Ventura Adult and Continuing Education,https://www.otan.us/caaeproviders/index.cfm?fuseaction=detail&id=10661&myzip=95814&distance=3500,Local Educational Agency (LEA),"5200 Valentine Road Ventura, CA 93003",-119.219536,34.255952
410,Antelope Valley Union High School District,https://www.otan.us/caaeproviders/index.cfm?fuseaction=detail&id=10614&myzip=95814&distance=3500,Local Educational Agency (LEA),"44811 North Sierra Highway Lancaster, CA 93534",-118.13699,34.69818
411,Oxnard Adult School,https://www.otan.us/caaeproviders/index.cfm?fuseaction=detail&id=9996&myzip=95814&distance=3500,Local Educational Agency (LEA),"1101 West Second Street Oxnard, CA 93030",-119.190617,34.202023
412,Moorpark Adult Educaction,https://www.otan.us/caaeproviders/index.cfm?fuseaction=detail&id=9805&myzip=95814&distance=3500,Local Educational Agency (LEA),"4500 Tierra Rejada Road Moorpark, CA 93021",-118.898244,34.270183
413,Moorpark College,https://www.otan.us/caaeproviders/index.cfm?fuseaction=detail&id=994437821&myzip=95814&distance=3500,Community College,"7075 Campus Road Moorpark, California 93021",-118.834478,34.301081
414,Ventura County Community College District,https://www.otan.us/caaeproviders/index.cfm?fuseaction=detail&id=11070&myzip=95814&distance=3500,,"761 East Daily Drive Camarillo, CA 93010",-119.057872,34.218998
415,Oxnard College,https://www.otan.us/caaeproviders/index.cfm?fuseaction=detail&id=994437822&myzip=95814&distance=3500,Community College,"4000 South Rose Avenue Oxnard, California 93033",-119.1574,34.16471
416,Golden Oak Adult School,https://www.otan.us/caaeproviders/index.cfm?fuseaction=detail&id=9871&myzip=95814&distance=3500,Local Educational Agency (LEA),"23201 Dalbey Drive Santa Clarita, CA 91355",-118.54188,34.38627
417,Santa Clarita Community College District,https://www.otan.us/caaeproviders/index.cfm?fuseaction=detail&id=888888394&myzip=95814&distance=3500,Community College,"26455 Rockwell Canyon Road Santa Clarita, CA 91355",-118.573734,34.404967
418,College of the Canyons,https://www.otan.us/caaeproviders/index.cfm?fuseaction=detail&id=994437820&myzip=95814&distance=3500,Community College,"25455 Rockwell Canyon Road Santa Clarita, California 91355",-118.56,34.42
419,Antelope Valley Adult School,https://www.otan.us/caaeproviders/index.cfm?fuseaction=detail&id=10238&myzip=95814&distance=3500,Local Educational Agency (LEA),"45110 3rd Street East Lancaster, CA 93535",-118.125333,34.702579
420,Simi Institute for Careers & Education,https://www.otan.us/caaeproviders/index.cfm?fuseaction=detail&id=9922&myzip=95814&distance=3500,Local Educational Agency (LEA),"1880 Blackstock Ave. Simi Valley, CA 93065",-118.734889,34.270171
421,Conejo Valley Adult School,https://www.otan.us/caaeproviders/index.cfm?fuseaction=detail&id=10204&myzip=95814&distance=3500,Local Educational Agency (LEA),"1025 Old Farm Road Thousand Oaks, CA 91360",-118.859879,34.204856
422,Los Angeles Mission College,https://www.otan.us/caaeproviders/index.cfm?fuseaction=detail&id=10558&myzip=95814&distance=3500,Community College,"13356 Eldridge Avenue Sylmar, CA 91342",-118.42007,34.3145
423,North Valley Occupational Center,https://www.otan.us/caaeproviders/index.cfm?fuseaction=detail&id=9838&myzip=95814&distance=3500,Local Educational Agency (LEA),"11450 Sharp Avenue Mission Hills, CA 91345",-118.457044,34.277816
424,El Camino-Reseda Community Adult School,https://www.otan.us/caaeproviders/index.cfm?fuseaction=detail&id=9820&myzip=95814&distance=3500,Local Educational Agency (LEA),"21213 Van Owen Street Canoga Park, CA 91303",-118.5944,34.19385
425,West Valley Occupational Center,https://www.otan.us/caaeproviders/index.cfm?fuseaction=detail&id=9849&myzip=95814&distance=3500,Local Educational Agency (LEA),"6200 Winnetka Avenue Woodland Hills, CA 91367",-118.57071,34.18283
426,YPI FamilySource Center,https://www.otan.us/caaeproviders/index.cfm?fuseaction=detail&id=10414&myzip=95814&distance=3500,Community-based Organization,"1075 N. Western Ave. #110  Los Angeles, CA 91331",-118.309713,34.090462
427,Reseda Community Adult School,https://www.otan.us/caaeproviders/index.cfm?fuseaction=detail&id=9841&myzip=95814&distance=3500,Local Educational Agency (LEA),"18230 Kittridge Street Reseda, CA 91335",-118.53049,34.19004
428,Los Angeles Pierce College,https://www.otan.us/caaeproviders/index.cfm?fuseaction=detail&id=994437823&myzip=95814&distance=3500,Community College,"6201 Winnetka Avenue Woodland Hills, California 91371",-118.571173,34.182833
429,Las Virgenes Adult School,https://www.otan.us/caaeproviders/index.cfm?fuseaction=detail&id=9932&myzip=95814&distance=3500,Local Educational Agency (LEA),"4345 N. Las Virgenes Road Calabasas, CA 91302",-118.71098,34.11075
430,Van Nuys Day Labor Site,https://www.otan.us/caaeproviders/index.cfm?fuseaction=detail&id=10443&myzip=95814&distance=3500,Community-based Organization,"8200 Balboa Place Van Nuys, CA 91406",-118.50201,34.21924
431,North Hollywood Day Labor Site,https://www.otan.us/caaeproviders/index.cfm?fuseaction=detail&id=10442&myzip=95814&distance=3500,Community-based Organization,"11841 Sherman Way North Hollywood, CA 91605",-118.39192,34.20136
432,Van Nuys Community Adult School,https://www.otan.us/caaeproviders/index.cfm?fuseaction=detail&id=9844&myzip=95814&distance=3500,Local Educational Agency (LEA),"6535 Cedros Avenue Van Nuys, CA 91411",-118.45331,34.18983
433,Los Angeles Valley College,https://www.otan.us/caaeproviders/index.cfm?fuseaction=detail&id=10561&myzip=95814&distance=3500,Community College,"5800 Fulton Avenue Valley Glen, CA 91401",-118.42233,34.175857
434,Burbank Adult School,https://www.otan.us/caaeproviders/index.cfm?fuseaction=detail&id=9792&myzip=95814&distance=3500,Local Educational Agency (LEA),"3811 W. Allan Avenue Burbank, CA 91505",-118.352982,34.17757
435,Community Enhancement Services,https://www.otan.us/caaeproviders/index.cfm?fuseaction=detail&id=10509&myzip=95814&distance=3500,Community-based Organization,"401 South Glenoaks Boulevard Suite 211 Burbank, CA 91502",-118.309677,34.185465
436,Glendale Community College,https://www.otan.us/caaeproviders/index.cfm?fuseaction=detail&id=10393&myzip=95814&distance=3500,Community College,"1500 North Verdugo Road Glendale, CA 91208",-118.228104,34.16898
437,Armenian Relief Society,https://www.otan.us/caaeproviders/index.cfm?fuseaction=detail&id=99999919&myzip=95814&distance=3500,CBO,"517 W Glenoaks Boulevard Glendale, CA 91202",-118.249465,34.15857
438,Barstow Adult Evening School,https://www.otan.us/caaeproviders/index.cfm?fuseaction=detail&id=9773&myzip=95814&distance=3500,Local Educational Agency (LEA),"551 South Avenue H Barstow, CA 92311",-117.04742,34.89296
439,Barstow Community College District,https://www.otan.us/caaeproviders/index.cfm?fuseaction=detail&id=888888446&myzip=95814&distance=3500,Community College,"2700 Barstow Road Barstow, CA 92311",-117.021004,34.870571
440,Hollywood Community Adult School,https://www.otan.us/caaeproviders/index.cfm?fuseaction=detail&id=9827&myzip=95814&distance=3500,Local Educational Agency (LEA),"1521 N. Highland Avenue Los Angeles, CA 90028",-118.33913,34.09868
441,Venice Skills Center,https://www.otan.us/caaeproviders/index.cfm?fuseaction=detail&id=9845&myzip=95814&distance=3500,Local Educational Agency (LEA),"611 5th Avenue Venice,   90025",-118.472304,33.995977
442,Garfield Campus,https://www.otan.us/caaeproviders/index.cfm?fuseaction=detail&id=10392&myzip=95814&distance=3500,Community College,"1122 East Garfield Ave. Glendale, CA 91205",-118.240695,34.135692
443,"City of Glendale, Library Arts & Culture ",https://www.otan.us/caaeproviders/index.cfm?fuseaction=detail&id=99999920&myzip=95814&distance=3500,Public Library,"222 East Harvard Street Glendale, CA 91205",-118.253484,34.143514
444,Beverly Hills Adult School,https://www.otan.us/caaeproviders/index.cfm?fuseaction=detail&id=10212&myzip=95814&distance=3500,Local Educational Agency (LEA),"255 S. Lasky Drive Beverly Hills, CA 90212",-118.410363,34.062403
445,Pasadena Adult Education,https://www.otan.us/caaeproviders/index.cfm?fuseaction=detail&id=10065&myzip=95814&distance=3500,Local Educational Agency (LEA),"351 S. Hudson Avenue Room 214 Pasadena, CA 91109",-118.1342,34.13992
446,Twilight Adult/CIS Academy,https://www.otan.us/caaeproviders/index.cfm?fuseaction=detail&id=11046&myzip=95814&distance=3500,,"351 S. Hudson Ave Pasadena, CA 91109",-118.1342,34.13992
447,Los Angeles City College,https://www.otan.us/caaeproviders/index.cfm?fuseaction=detail&id=994437824&myzip=95814&distance=3500,Community College,"855 North Vermont Avenue Los Angeles, California 90029",-118.29192,34.08687
448,Santa Monica-Malibu Adult Education Center,https://www.otan.us/caaeproviders/index.cfm?fuseaction=detail&id=10130&myzip=95814&distance=3500,Local Educational Agency (LEA),"2510 Lincoln Blvd. Room 2013 Santa Monica, CA 90405",-118.47775,34.00796
449,Santa Monica Community College District,https://www.otan.us/caaeproviders/index.cfm?fuseaction=detail&id=888888393&myzip=95814&distance=3500,Community College,"1900 Pico Boulevard Santa Monica, CA 90405",-118.46977,34.01916
450,YPI Community Center,https://www.otan.us/caaeproviders/index.cfm?fuseaction=detail&id=10721&myzip=95814&distance=3500,,"12502 Van Nuys Boulevard 1st Floor Pacoima, CA 90004",-118.40516,34.27822
451,Snowline Adult School,https://www.otan.us/caaeproviders/index.cfm?fuseaction=detail&id=11060&myzip=95814&distance=3500,,"9298 Sheep Creek Rd Phelan, CA 92371",-117.57243,34.41811
452,Snowline Adult,https://www.otan.us/caaeproviders/index.cfm?fuseaction=detail&id=570134106&myzip=95814&distance=3500,LEA,"9298 Sheep Creek Road Phelan, CA 92371",-117.57243,34.41811
453,Pasadena Area Community College District,https://www.otan.us/caaeproviders/index.cfm?fuseaction=detail&id=888888408&myzip=95814&distance=3500,Community College,"1570 E. Colorado Boulevard Pasadena, CA 91106",-118.119184,34.143935
454,Pasadena Community College - Noncredit Division,https://www.otan.us/caaeproviders/index.cfm?fuseaction=detail&id=10401&myzip=95814&distance=3500,Community College,"3035 E. Foothill Blvd Pasadena, CA 91107",-118.086237,34.15087
455,Santa Monica College,https://www.otan.us/caaeproviders/index.cfm?fuseaction=detail&id=10818&myzip=95814&distance=3500,,"Noncredit (Adult Education) Programs 1900 Pico Boulevard Santa Monica, CA 90066",-118.470881,34.018743
456,Royal Palms Recovery Center,https://www.otan.us/caaeproviders/index.cfm?fuseaction=detail&id=10453&myzip=95814&distance=3500,Community-based Organization,"360 South Westlake Avenue Los Angeles, CA 90057",-118.27225,34.06076
457,Culver City Adult School,https://www.otan.us/caaeproviders/index.cfm?fuseaction=detail&id=10207&myzip=95814&distance=3500,Local Educational Agency (LEA),"4909 Overland Avenue Culver City, CA 90230",-118.397621,34.007951
458,Los Angeles Technology Center,https://www.otan.us/caaeproviders/index.cfm?fuseaction=detail&id=9833&myzip=95814&distance=3500,Local Educational Agency (LEA),"3721 W. Washington Boulevard Los Angeles, CA 90018",-118.32544,34.04005
459,East Los Angeles Skills Center,https://www.otan.us/caaeproviders/index.cfm?fuseaction=detail&id=9819&myzip=95814&distance=3500,Local Educational Agency (LEA),"3921 Selig Place Los Angeles, CA 90031",-118.19725,34.06867
460,Regional Occupational Program Center,https://www.otan.us/caaeproviders/index.cfm?fuseaction=detail&id=9840&myzip=95814&distance=3500,Local Educational Agency (LEA),"333 S. Beaudry Avenue 18th Floor, Room 156 Los Angeles, CA 90017",-118.25726,34.05613
461,Division of Adult and Career Education (LAUSD),https://www.otan.us/caaeproviders/index.cfm?fuseaction=detail&id=10455&myzip=95814&distance=3500,Local Educational Agency (LEA),"333 South Beaudry Avenue 18th Floor Los Angeles, CA 90017",-118.25726,34.05613
462,Los Angeles Community College District,https://www.otan.us/caaeproviders/index.cfm?fuseaction=detail&id=888888422&myzip=95814&distance=3500,Community College,"770 Wilshire Boulevard Los Angeles, CA 90017",-118.258111,34.049138
463,Evans Community Adult School,https://www.otan.us/caaeproviders/index.cfm?fuseaction=detail&id=9821&myzip=95814&distance=3500,Local Educational Agency (LEA),"717 N. Figueroa Street Los Angeles, CA 90012",-118.24577,34.06393
464,E. Manfred Evans Community Adult,https://www.otan.us/caaeproviders/index.cfm?fuseaction=detail&id=331931427&myzip=95814&distance=3500,LEA,"717 North Figueroa Street Los Angeles, CA 90012",-118.24577,34.06393
465,Abram Friedman Occupational Center,https://www.otan.us/caaeproviders/index.cfm?fuseaction=detail&id=9815&myzip=95814&distance=3500,Local Educational Agency (LEA),"1646 S. Olive Street Los Angeles, CA 90015",-118.26572,34.03456
466,Los Angeles Trade Technical College,https://www.otan.us/caaeproviders/index.cfm?fuseaction=detail&id=10483&myzip=95814&distance=3500,Community College,"400 West Washington Blvd. Los Angeles, CA 90015",-118.26066,34.02808
467,Job Corps,https://www.otan.us/caaeproviders/index.cfm?fuseaction=detail&id=99999946&myzip=95814&distance=3500,Local Public Agency,"1020 S. Olive Street Los Angeles, CA 90015",-118.2599,34.04162
468,Workability,https://www.otan.us/caaeproviders/index.cfm?fuseaction=detail&id=99999922&myzip=95814&distance=3500,State Agency,"5151 State University Drive, Administration Building Room 127 Los Angeles, CA 90032",-118.170923,34.062769
469,DISKovery Angelina,https://www.otan.us/caaeproviders/index.cfm?fuseaction=detail&id=10419&myzip=95814&distance=3500,Community-based Organization,"231 E. Third St., Suite G-106  Los Angeles, CA 90013",-118.24373,34.04849
470,Alhambra Adult Education Division,https://www.otan.us/caaeproviders/index.cfm?fuseaction=detail&id=10049&myzip=95814&distance=3500,Local Educational Agency (LEA),"15 W. Alhambra Road Alhambra, CA 91801",-118.13176,34.10021
471,East Los Angeles Occupational Center,https://www.otan.us/caaeproviders/index.cfm?fuseaction=detail&id=9818&myzip=95814&distance=3500,Local Educational Agency (LEA),"2100 Marengo Street Los Angeles, CA 90033",-118.205792,34.055693
472,Silver Valley Adult School,https://www.otan.us/caaeproviders/index.cfm?fuseaction=detail&id=10068&myzip=95814&distance=3500,Local Educational Agency (LEA),"33525 Donnay Yermo, CA 92398",-116.83,34.91
473,Arcadia Adult School,https://www.otan.us/caaeproviders/index.cfm?fuseaction=detail&id=611995760&myzip=95814&distance=3500,LEA,"150 South Third Avenue Arcadia, CA 91006",-118.0235,34.13801
474,Monrovia Community Adult School,https://www.otan.us/caaeproviders/index.cfm?fuseaction=detail&id=10143&myzip=95814&distance=3500,Local Educational Agency (LEA),"920 S. Mountain Avenue Monrovia, CA 91016",-117.985441,34.141849
475,LAUSD ROP Center,https://www.otan.us/caaeproviders/index.cfm?fuseaction=detail&id=331931849&myzip=95814&distance=3500,LEA,"716 East 14th Street, First Floor Los Angeles, CA 90021",-118.25312,34.03142
476,Garfield Community Adult School- Eastside Learning Ctr.,https://www.otan.us/caaeproviders/index.cfm?fuseaction=detail&id=9824&myzip=95814&distance=3500,Local Educational Agency (LEA),"831 N. Bonnie Beach Place Los Angeles, CA 90063",-118.181535,34.046241
477,Temple City Adult Education,https://www.otan.us/caaeproviders/index.cfm?fuseaction=detail&id=9768&myzip=95814&distance=3500,Local Educational Agency (LEA),"9229 Pentland Street Temple City, CA 91780",-118.066873,34.094263
478,Dr. Doug Sears Learning Center,https://www.otan.us/caaeproviders/index.cfm?fuseaction=detail&id=521932094&myzip=95814&distance=3500,LEA,"9229 Pentland Avenue Temple City, CA 91780",-118.066873,34.094263
479,Jefferson Community Adult School,https://www.otan.us/caaeproviders/index.cfm?fuseaction=detail&id=9829&myzip=95814&distance=3500,Local Educational Agency (LEA),"1319 E. 41st Street Los Angeles, CA 90011",-118.25134,34.00928
480,Victor Valley Community College,https://www.otan.us/caaeproviders/index.cfm?fuseaction=detail&id=11064&myzip=95814&distance=3500,,"18422 Bear Valley Road Victorville, CA 92395",-117.259483,34.471001
481,Victor Valley Community College District,https://www.otan.us/caaeproviders/index.cfm?fuseaction=detail&id=888888382&myzip=95814&distance=3500,Community College,"18422 Bear Valley Road Victorville, CA 92395",-117.259483,34.471001
482,Inglewood Community Adult School,https://www.otan.us/caaeproviders/index.cfm?fuseaction=detail&id=10180&myzip=95814&distance=3500,Local Educational Agency (LEA),"106 East Manchester Boulevard Suite 305 Inglewood, CA 90301",-118.354315,33.961439
483,New Opportunities Charter School,https://www.otan.us/caaeproviders/index.cfm?fuseaction=detail&id=10812&myzip=95814&distance=3500,,"310 S. La Brea Inglewood, CA 90301",-118.353307,33.958992
484,East Los Angeles College,https://www.otan.us/caaeproviders/index.cfm?fuseaction=detail&id=10560&myzip=95814&distance=3500,Community College,"1301 Avenida Cesar Chavez Monterey Park, CA 91754",-118.1513,34.04047
485,Victor Valley Adult Education,https://www.otan.us/caaeproviders/index.cfm?fuseaction=detail&id=9941&myzip=95814&distance=3500,Local Educational Agency (LEA),"16350 Mojave Victorville, CA 92392",-117.30632,34.53078
486,Mt. Olive Alternative Education,https://www.otan.us/caaeproviders/index.cfm?fuseaction=detail&id=9806&myzip=95814&distance=3500,Local Educational Agency (LEA),"1400 Mt. Olive Drive Duarte, CA 91010",-117.955236,34.137362
487,Los Angeles Southwest College,https://www.otan.us/caaeproviders/index.cfm?fuseaction=detail&id=10562&myzip=95814&distance=3500,Community College,"1600 Imperial Highway Los Angeles, CA 90047",-118.30466,33.9308
488,El Monte-Rosemead Adult School,https://www.otan.us/caaeproviders/index.cfm?fuseaction=detail&id=10218&myzip=95814&distance=3500,Local Educational Agency (LEA),"10807 Ramona Boulevard El Monte, CA 91731",-118.038878,34.072306
489,Community Centers Inc,https://www.otan.us/caaeproviders/index.cfm?fuseaction=detail&id=10435&myzip=95814&distance=3500,Community-based Organization,"7518 South Vermont Avenue Los Angeles, CA 90044",-118.29131,33.97111
490,Fremont-Washington Community Adult School,https://www.otan.us/caaeproviders/index.cfm?fuseaction=detail&id=9823&myzip=95814&distance=3500,Local Educational Agency (LEA),"7676 S. San Pedro Street Los Angeles, CA 90003",-118.26936,33.96962
491,Huntington Park/Bell Community Adult,https://www.otan.us/caaeproviders/index.cfm?fuseaction=detail&id=331934132&myzip=95814&distance=3500,LEA,"2945 Belgrave Avenue Huntington Park, CA 90255",-118.21714,33.98728
492,Azusa City Library,https://www.otan.us/caaeproviders/index.cfm?fuseaction=detail&id=10806&myzip=95814&distance=3500,,"729 N. Dalton Ave. Azusa, CA 91702",-117.90497,34.13451
493,Baldwin Park Adult & Community Education,https://www.otan.us/caaeproviders/index.cfm?fuseaction=detail&id=10240&myzip=95814&distance=3500,Local Educational Agency (LEA),"4640 Maine Avenue Baldwin Park, CA 91706",-117.959349,34.096716
494,Glendora Adult,https://www.otan.us/caaeproviders/index.cfm?fuseaction=detail&id=761931252&myzip=95814&distance=3500,LEA,"500 North Loraine Avenue Glendora, CA 91741",-117.844658,34.14423
495,Citrus Community College District,https://www.otan.us/caaeproviders/index.cfm?fuseaction=detail&id=888888440&myzip=95814&distance=3500,Community College,"1000 W Foothill Boulevard Glendora, CA 91741",-117.886864,34.13422
496,Schurr Community Adult School,https://www.otan.us/caaeproviders/index.cfm?fuseaction=detail&id=10041&myzip=95814&distance=3500,Local Educational Agency (LEA),"820 N. Wilcox Avenue Montebello, CA 90640",-118.12464,34.03183
497,Montebello Community Adult School,https://www.otan.us/caaeproviders/index.cfm?fuseaction=detail&id=10145&myzip=95814&distance=3500,Local Educational Agency (LEA),"149 North 21st Street Montebello, CA 90640",-118.1233,34.01414
498,Ford Park Community Adult School,https://www.otan.us/caaeproviders/index.cfm?fuseaction=detail&id=10014&myzip=95814&distance=3500,Local Educational Agency (LEA),"7800 Scout Avenue Bell Gardens, CA 90201",-118.14852,33.96027
499,Bell Gardens Community Adult School,https://www.otan.us/caaeproviders/index.cfm?fuseaction=detail&id=10283&myzip=95814&distance=3500,Local Educational Agency (LEA),"6119 Agra Street Bell Gardens, CA 90201",-118.15361,33.975559
500,Centinela Valley Adult School,https://www.otan.us/caaeproviders/index.cfm?fuseaction=detail&id=10533&myzip=95814&distance=3500,Local Educational Agency (LEA),"4953 Marine Avenue Lawndale, CA 90260",-118.36479,33.89484
501,Trade Tech Academy,https://www.otan.us/caaeproviders/index.cfm?fuseaction=detail&id=11058&myzip=95814&distance=3500,,"231 E. Stephanie Dr. Covina, CA 91722",-117.886997,34.104571
502,Azusa Adult School,https://www.otan.us/caaeproviders/index.cfm?fuseaction=detail&id=10137&myzip=95814&distance=3500,Local Educational Agency (LEA),"1134 South Barranca Avenue Glendora, CA 91740",-117.88128,34.12002
503,Glendora Adult School/ Whitcomb High School,https://www.otan.us/caaeproviders/index.cfm?fuseaction=detail&id=10170&myzip=95814&distance=3500,Local Educational Agency (LEA),"350 West Mauna Loa Glendora, CA 91740",-117.86904,34.125
504,South Bay Adult School,https://www.otan.us/caaeproviders/index.cfm?fuseaction=detail&id=10107&myzip=95814&distance=3500,Local Educational Agency (LEA),"3401 Inglewood Avenue Redondo Beach, CA 90278",-118.36141,33.8859
505,Maxine Waters Employment Preparation Center,https://www.otan.us/caaeproviders/index.cfm?fuseaction=detail&id=9835&myzip=95814&distance=3500,Local Educational Agency (LEA),"10925 S. Central Avenue Los Angeles, CA 90059",-118.25439,33.93648
506,Bassett Adult School,https://www.otan.us/caaeproviders/index.cfm?fuseaction=detail&id=9739&myzip=95814&distance=3500,Local Educational Agency (LEA),"943 North Sunkist Avenue La Puente, CA 91746",-117.96964,34.05124
507,Willow Center,https://www.otan.us/caaeproviders/index.cfm?fuseaction=detail&id=10048&myzip=95814&distance=3500,Local Educational Agency (LEA),"14101 E. Nelson Avenue La Puente, CA 91746",-117.980305,34.043415
508,Bassett Unified School District,https://www.otan.us/caaeproviders/index.cfm?fuseaction=detail&id=10613&myzip=95814&distance=3500,Local Educational Agency (LEA),"904 North Willow Avenue La Puente, CA 91746",-117.97247,34.05231
509,El Camino Community College District,https://www.otan.us/caaeproviders/index.cfm?fuseaction=detail&id=888888434&myzip=95814&distance=3500,Community College,"16007 Crenshaw Boulevard Torrance, CA 90506",-118.326763,33.885532
510,Tri-Community Adult Education (West Covina USD),https://www.otan.us/caaeproviders/index.cfm?fuseaction=detail&id=9800&myzip=95814&distance=3500,Local Educational Agency (LEA),"342 South 4th Avenue West Covina, CA 91790",-117.93,34.07
511,East San Gabriel Valley ROP,https://www.otan.us/caaeproviders/index.cfm?fuseaction=detail&id=951995034&myzip=95814&distance=3500,LEA,"1501 Del Norte Avenue West Covina, CA 91790",-117.93726,34.07746
512,El Rancho Adult School,https://www.otan.us/caaeproviders/index.cfm?fuseaction=detail&id=10222&myzip=95814&distance=3500,Local Educational Agency (LEA),"9515 Haney Street Pico Rivera, CA 90660",-118.0862,33.98273
513,Tri-Community Adult Education (Charter Oak USD),https://www.otan.us/caaeproviders/index.cfm?fuseaction=detail&id=9747&myzip=95814&distance=3500,Local Educational Agency (LEA),"20240 Cienega Covina, CA 91723",-117.85693,34.10218
514,Tri-Community Adult Education,https://www.otan.us/caaeproviders/index.cfm?fuseaction=detail&id=10046&myzip=95814&distance=3500,Local Educational Agency (LEA),"160 N. Barranca Ave. Covina, CA 91723",-117.88124,34.0854
515,Covina Public Library,https://www.otan.us/caaeproviders/index.cfm?fuseaction=detail&id=10552&myzip=95814&distance=3500,Public Library,"234 North Second Avenue Covina, CA 91723",-117.88692,34.08777
516,Tri-Community Adult Education/Pioneer Center,https://www.otan.us/caaeproviders/index.cfm?fuseaction=detail&id=11069&myzip=95814&distance=3500,,"160 N. Barranca Ave Covina, CA 91723",-117.88124,34.0854
517,Hesperia Adult School,https://www.otan.us/caaeproviders/index.cfm?fuseaction=detail&id=9771&myzip=95814&distance=3500,Local Educational Agency (LEA),"16527 Lemon Street Hesperia, CA 92345",-117.301613,34.444988
518,Rio Hondo Community College District,https://www.otan.us/caaeproviders/index.cfm?fuseaction=detail&id=888888404&myzip=95814&distance=3500,Community College,"3600 Workman Mill Road Whittier, CA 90601",-118.037649,34.019546
519,Torrance Adult School - Hamilton Center,https://www.otan.us/caaeproviders/index.cfm?fuseaction=detail&id=10044&myzip=95814&distance=3500,Local Educational Agency (LEA),"2606 West 182nd Street Torrance, CA 90504",-118.322569,33.86523
520,Hamilton Adult Education Center,https://www.otan.us/caaeproviders/index.cfm?fuseaction=detail&id=601938737&myzip=95814&distance=3500,LEA,"2606 182nd Street Torrance, CA 90504",-118.322569,33.86523
521,Charter Oak Adult Education,https://www.otan.us/caaeproviders/index.cfm?fuseaction=detail&id=11048&myzip=95814&distance=3500,,"20240 East Cienega Ave 20240 Est Cienega Ave Covina, CA 91724",-117.85693,34.10218
522,Lynwood Community Adult School,https://www.otan.us/caaeproviders/index.cfm?fuseaction=detail&id=10101&myzip=95814&distance=3500,Local Educational Agency (LEA),"4050 East Imperial Highway Lynwood, CA 90262",-118.192316,33.929988
523,Lynwood Adult,https://www.otan.us/caaeproviders/index.cfm?fuseaction=detail&id=741935410&myzip=95814&distance=3500,LEA,"11277 Atlantic Avenue Lynwood, CA 90262",-118.18666,33.923936
524,Tri-Cities ROP,https://www.otan.us/caaeproviders/index.cfm?fuseaction=detail&id=281995059&myzip=95814&distance=3500,LEA,"10800 Ben Avon Street, Unit E Whittier, CA 90606",-118.078729,33.971342
525,Gardena-Carson Community Adult School,https://www.otan.us/caaeproviders/index.cfm?fuseaction=detail&id=9851&myzip=95814&distance=3500,Local Educational Agency (LEA),"18210 S. Normandie Avenue Gardena, CA 90248",-118.3,33.86
526,Bonita District School for Adults,https://www.otan.us/caaeproviders/index.cfm?fuseaction=detail&id=9977&myzip=95814&distance=3500,Local Educational Agency (LEA),"115 West Allen Avenue San Dimas, CA 91773",-117.808251,34.118405
527,Compton Adult School,https://www.otan.us/caaeproviders/index.cfm?fuseaction=detail&id=10200&myzip=95814&distance=3500,Local Educational Agency (LEA),"1104  East  148th Street Compton, CA 90220",-118.254583,33.898352
528,Downey Adult School,https://www.otan.us/caaeproviders/index.cfm?fuseaction=detail&id=10216&myzip=95814&distance=3500,Local Educational Agency (LEA),"12340 Woodruff Avenue Downey, CA 90241",-118.11279,33.92045
529,Apple Valley Adult Education School,https://www.otan.us/caaeproviders/index.cfm?fuseaction=detail&id=11055&myzip=95814&distance=3500,,"13063 Pawnee Road Apple Valley , CA 92308",-117.18548,34.48939
530,Apple Valley Adult Education,https://www.otan.us/caaeproviders/index.cfm?fuseaction=detail&id=773630621&myzip=95814&distance=3500,LEA,"21950 Nisqually Rd Apple Valley, CA 92308",-117.185,34.48615
531,Hudson Adult Learning Center,https://www.otan.us/caaeproviders/index.cfm?fuseaction=detail&id=10556&myzip=95814&distance=3500,Local Educational Agency (LEA),"445 N. Glendora Avenue La Puente, CA 91744",-117.95325,34.025
532,Hacienda La Puente Adult Education,https://www.otan.us/caaeproviders/index.cfm?fuseaction=detail&id=10021&myzip=95814&distance=3500,Local Educational Agency (LEA),"15959 East Gale Avenue City of Industry, CA 91716",-117.958733,34.010613
533,Dibble Campus,https://www.otan.us/caaeproviders/index.cfm?fuseaction=detail&id=10175&myzip=95814&distance=3500,Local Educational Agency (LEA),"1600 Pontenova Avenue Hacienda Heights, CA 91745",-117.963378,34.001677
534,Dibble Adult,https://www.otan.us/caaeproviders/index.cfm?fuseaction=detail&id=451995307&myzip=95814&distance=3500,LEA,"1600 Pontenova Avenue Hacienda Heights, CA 91745",-117.963378,34.001677
535,Torrance Adult School - Griffith (Owen H.) Center,https://www.otan.us/caaeproviders/index.cfm?fuseaction=detail&id=9857&myzip=95814&distance=3500,Local Educational Agency (LEA),"2291 Washington Avenue Torrance, CA 90501",-118.321005,33.825828
536,Southern California ROC,https://www.otan.us/caaeproviders/index.cfm?fuseaction=detail&id=361995067&myzip=95814&distance=3500,LEA,"2300 Crenshaw Boulevard Torrance, CA 90501",-118.326417,33.824758
537,Owen H. Griffith Adult Center,https://www.otan.us/caaeproviders/index.cfm?fuseaction=detail&id=601995828&myzip=95814&distance=3500,LEA,"2291 Washington Avenue Torrance, CA 90501",-118.321005,33.825828
538,Compton Community College District,https://www.otan.us/caaeproviders/index.cfm?fuseaction=detail&id=888888438&myzip=95814&distance=3500,Community College,"1111 E. Artesia Boulevard Compton, CA 90221",-118.208359,33.87442
539,Paramount Adult School,https://www.otan.us/caaeproviders/index.cfm?fuseaction=detail&id=10165&myzip=95814&distance=3500,Local Educational Agency (LEA),"14507 Paramount Boulevard Paramount, CA 90723",-118.16016,33.90167
540,Whittier Adult School,https://www.otan.us/caaeproviders/index.cfm?fuseaction=detail&id=9870&myzip=95814&distance=3500,Local Educational Agency (LEA),"9401 South Painter Ave Whittier, CA 90605",-118.04408,33.95212
541,Whittier Adult School,https://www.otan.us/caaeproviders/index.cfm?fuseaction=detail&id=281939727&myzip=95814&distance=3500,LEA,"9401 South Painter Avenue Whittier, CA 90605",-118.04408,33.95212
542,Claremont Adult School,https://www.otan.us/caaeproviders/index.cfm?fuseaction=detail&id=9754&myzip=95814&distance=3500,Local Educational Agency (LEA),"170 W. San Jose Avenue Suite 107 Claremont, CA 91711",-117.71655,34.08306
543,Torrance Adult School - Levy Center,https://www.otan.us/caaeproviders/index.cfm?fuseaction=detail&id=10702&myzip=95814&distance=3500,Local Educational Agency (LEA),"3420 W. 229th Place Torrance, CA 90505",-118.345652,33.817871
544,Bellflower Unified School District,https://www.otan.us/caaeproviders/index.cfm?fuseaction=detail&id=10636&myzip=95814&distance=3500,Local Educational Agency (LEA),"16703 South Clark Avenue Bellflower, CA 90706",-118.13399,33.88245
545,Bellflower Adult Education Center,https://www.otan.us/caaeproviders/index.cfm?fuseaction=detail&id=31930759&myzip=95814&distance=3500,LEA,"9242 East Laurel Street Bellflower, CA 90706",-118.13762,33.88285
546,Norwalk-La Mirada Adult School (Norwalk),https://www.otan.us/caaeproviders/index.cfm?fuseaction=detail&id=10157&myzip=95814&distance=3500,Local Educational Agency (LEA),"15711 Pioneer Boulevard Norwalk, CA 90650",-118.08254,33.88866
547,Cerritos Community College,https://www.otan.us/caaeproviders/index.cfm?fuseaction=detail&id=10543&myzip=95814&distance=3500,Community College,"11110 Alondra Boulevard Norwalk, CA 90650",-118.097748,33.887428
548,Walnut Valley Adult Education,https://www.otan.us/caaeproviders/index.cfm?fuseaction=detail&id=9811&myzip=95814&distance=3500,Local Educational Agency (LEA),"880  S. Lemon Avenue Walnut, CA 91789",-117.854271,33.999969
549,Mt. San Antonio Community College,https://www.otan.us/caaeproviders/index.cfm?fuseaction=detail&id=10374&myzip=95814&distance=3500,Community College,"1100 N. Grand Avenue Walnut, CA 91789",-117.84744,34.04304
550,Palos Verdes Peninsula Adult Education,https://www.otan.us/caaeproviders/index.cfm?fuseaction=detail&id=10095&myzip=95814&distance=3500,Local Educational Agency (LEA),"38 Crest Road Rolling Hills, CA 90274",-118.342227,33.750568
551,Upland Adult School,https://www.otan.us/caaeproviders/index.cfm?fuseaction=detail&id=9956&myzip=95814&distance=3500,Local Educational Agency (LEA),"390 N. Euclid Ave Upland, CA 91786",-117.650561,34.098199
552,Rowland Adult and Community Education,https://www.otan.us/caaeproviders/index.cfm?fuseaction=detail&id=10111&myzip=95814&distance=3500,Local Educational Agency (LEA),"2100 Lerona Avenue Rowland Heights, CA 91748",-117.887861,33.981013
553,Chaffey Community College District,https://www.otan.us/caaeproviders/index.cfm?fuseaction=detail&id=888888441&myzip=95814&distance=3500,Community College,"5885 Haven Avenue Rancho Cucamonga, CA 91737",-117.57034,34.147008
554,Pomona Adult & Career Education,https://www.otan.us/caaeproviders/index.cfm?fuseaction=detail&id=10103&myzip=95814&distance=3500,Local Educational Agency (LEA),"1515 West Mission Blvd. Pomona, CA 91766",-117.772812,34.05489
555,Baker Adult School,https://www.otan.us/caaeproviders/index.cfm?fuseaction=detail&id=9990&myzip=95814&distance=3500,Local Educational Agency (LEA),", CA 92309",-116.08,35.26
556,Norwalk-La Mirada Adult School (La Mirada),https://www.otan.us/caaeproviders/index.cfm?fuseaction=detail&id=10032&myzip=95814&distance=3500,Local Educational Agency (LEA),"15920 Barbata Road La Mirada, CA 90638",-118.00491,33.88801
557,Harbor OC - Wilmington Skills Center,https://www.otan.us/caaeproviders/index.cfm?fuseaction=detail&id=10023&myzip=95814&distance=3500,Local Educational Agency (LEA),"217 Island Avenue Wilmington, CA 90744",-118.265845,33.771495
558,Los Angeles Harbor College,https://www.otan.us/caaeproviders/index.cfm?fuseaction=detail&id=994437827&myzip=95814&distance=3500,Community College,"1111 Figueroa Place Wilmington, California 90744",-118.284027,33.783531
559,Long Beach City College,https://www.otan.us/caaeproviders/index.cfm?fuseaction=detail&id=888888603&myzip=95814&distance=3500,Community College,"1305 East Pacific Coast Highway Long Beach, CA 90806",-118.174634,33.791117
560,ABC Adult School,https://www.otan.us/caaeproviders/index.cfm?fuseaction=detail&id=10232&myzip=95814&distance=3500,Local Educational Agency (LEA),"12254 Cuesta Drive Cerritos, CA 90703",-118.070002,33.87789
561,Chaffey Adult School,https://www.otan.us/caaeproviders/index.cfm?fuseaction=detail&id=10254&myzip=95814&distance=3500,Local Educational Agency (LEA),"1802 E. Seventh Street Ontario, CA 91764",-117.61456,34.0899
562,San Pedro Adult Learning Center,https://www.otan.us/caaeproviders/index.cfm?fuseaction=detail&id=9825&myzip=95814&distance=3500,Local Educational Agency (LEA),"950 W. Santa Cruz San Pedro, CA 90731",-118.29782,33.74475
563,Harbor Occupational Center,https://www.otan.us/caaeproviders/index.cfm?fuseaction=detail&id=9826&myzip=95814&distance=3500,Local Educational Agency (LEA),"740 N. Pacific Avenue San Pedro, CA 90731",-118.28686,33.75009
564,Harbor OC - San Pedro Skills Center,https://www.otan.us/caaeproviders/index.cfm?fuseaction=detail&id=10022&myzip=95814&distance=3500,Local Educational Agency (LEA),"920 West 36th Street Bldg. 950 San Pedro, CA 90731",-118.29791,33.71367
565,San Pedro Skills Center,https://www.otan.us/caaeproviders/index.cfm?fuseaction=detail&id=336068555&myzip=95814&distance=3500,LEA,"920 West 36th Street,Building 950 San Pedro, CA 90731",-118.29791,33.71367
566,Long Beach Community College District,https://www.otan.us/caaeproviders/index.cfm?fuseaction=detail&id=888888423&myzip=95814&distance=3500,Community College,"4901 E. Carson Street Long Beach, CA 90808",-118.135638,33.834305
567,Long Beach City College,https://www.otan.us/caaeproviders/index.cfm?fuseaction=detail&id=994437826&myzip=95814&distance=3500,Community College,"4901 East Carson Street Long Beach, California 90808",-118.135638,33.834305
568,Chino Valley Adult School,https://www.otan.us/caaeproviders/index.cfm?fuseaction=detail&id=10198&myzip=95814&distance=3500,Local Educational Agency (LEA),"12970 Third St Chino, CA 91710",-117.696864,34.01815
569,Long Beach School for Adults,https://www.otan.us/caaeproviders/index.cfm?fuseaction=detail&id=10193&myzip=95814&distance=3500,Local Educational Agency (LEA),"3701 E. Willow Street Long Beach, CA 90815",-118.149538,33.805475
570,FJUSD Adult Education - La Sierra HS,https://www.otan.us/caaeproviders/index.cfm?fuseaction=detail&id=10166&myzip=95814&distance=3500,Local Educational Agency (LEA),"951 North State College Blvd. Fullerton, CA 92831",-117.890312,33.879025
571,Cypress College,https://www.otan.us/caaeproviders/index.cfm?fuseaction=detail&id=994437828&myzip=95814&distance=3500,Community College,"9200 Valley View Street Cypress, California 90630",-118.027823,33.830499
572,Fullerton College,https://www.otan.us/caaeproviders/index.cfm?fuseaction=detail&id=994437829&myzip=95814&distance=3500,Community College,"321 East Chapman Avenue Fullerton, California 92832",-117.919404,33.877104
573,Lucerne Valley Adult School,https://www.otan.us/caaeproviders/index.cfm?fuseaction=detail&id=10196&myzip=95814&distance=3500,Local Educational Agency (LEA),"33233 Rabbit Springs Road Lucerne Valley, CA 92356",-116.9385,34.45841
574,North Orange Continuing Education,https://www.otan.us/caaeproviders/index.cfm?fuseaction=detail&id=10369&myzip=95814&distance=3500,Community College,"Anaheim,   92801",-117.94,33.84
575,North Orange County ROP,https://www.otan.us/caaeproviders/index.cfm?fuseaction=detail&id=43095015&myzip=95814&distance=3500,LEA,"385 North Muller Street Anaheim, CA 92801",-117.950796,33.836465
576,North Orange County Community College District,https://www.otan.us/caaeproviders/index.cfm?fuseaction=detail&id=888888412&myzip=95814&distance=3500,Community College,"1830 Romneya Drive Anaheim, CA 92801",-117.946754,33.85044
577,Placentia-Yorba Linda Adult Education,https://www.otan.us/caaeproviders/index.cfm?fuseaction=detail&id=10178&myzip=95814&distance=3500,Local Educational Agency (LEA),"4175 Fairmont Boulevard Yorba Linda, CA 92886",-117.79081,33.89591
578,Rialto Adult School,https://www.otan.us/caaeproviders/index.cfm?fuseaction=detail&id=10075&myzip=95814&distance=3500,Local Educational Agency (LEA),"324 N. Palm Avenue Rialto, CA 92376",-117.37295,34.10576
579,Fontana Adult School,https://www.otan.us/caaeproviders/index.cfm?fuseaction=detail&id=10220&myzip=95814&distance=3500,Local Educational Agency (LEA),"10755 Oleander Ave Fontana, CA 92337",-117.44857,34.05844
580,Inland Career Education Center,https://www.otan.us/caaeproviders/index.cfm?fuseaction=detail&id=10120&myzip=95814&distance=3500,Local Educational Agency (LEA),"1200 North E Street San Bernardino, CA 92405",-117.294729,34.121914
581,Krsiti RIchardson,https://www.otan.us/caaeproviders/index.cfm?fuseaction=detail&id=11065&myzip=95814&distance=3500,,"18229 Orange St. 18229 Orange St. Bloomington, CA 92316",-117.3972505,34.0645
582,Coastline Community College,https://www.otan.us/caaeproviders/index.cfm?fuseaction=detail&id=10451&myzip=95814&distance=3500,Community College,", Le-Jao Center 14120 All American Way Westminster, CA 92683",-117.9848653,33.7563987
583,BPSOS Center for Community Advancement,https://www.otan.us/caaeproviders/index.cfm?fuseaction=detail&id=10822&myzip=95814&distance=3500,,"13950 Milton Ave. Suite 301 Westminster, CA 92683",-118.020396,33.759688
584,HBAS Learning Center,https://www.otan.us/caaeproviders/index.cfm?fuseaction=detail&id=11043&myzip=95814&distance=3500,,"1017A Westminster Mall Drive Westminster, CA 92683",-118.01409,33.74948
585,HBAS Westminster ESL,https://www.otan.us/caaeproviders/index.cfm?fuseaction=detail&id=11045&myzip=95814&distance=3500,,"14325 Golden West Street Westminster, CA 92683",-118.00634,33.7546
586,Garden Grove Adult Education/Lincoln Education Center,https://www.otan.us/caaeproviders/index.cfm?fuseaction=detail&id=10168&myzip=95814&distance=3500,Local Educational Agency (LEA),"11262 Garden Grove Boulevard Garden Grove, CA 92843",-117.935528,33.773247
587,San Bernardino Public Library,https://www.otan.us/caaeproviders/index.cfm?fuseaction=detail&id=10835&myzip=95814&distance=3500,,"Jack L. Hill Lifelong Learning Center 555 W. 6th Street San Bernardino, CA 92410",-117.2622685,34.1099307
588,San Bernardino City Library Services,https://www.otan.us/caaeproviders/index.cfm?fuseaction=detail&id=99999928&myzip=95814&distance=3500,Public Library,"555 West 6th Street San Bernardino, CA 92410",-117.2954,34.11009
589,San Bernardino Valley College ,https://www.otan.us/caaeproviders/index.cfm?fuseaction=detail&id=888888629&myzip=95814&distance=3500,Community College,"701 S. Mt. Vernon Ave. San Bernardino, CA 92410",-117.31377,34.08957
590,Huntington Beach Adult School,https://www.otan.us/caaeproviders/index.cfm?fuseaction=detail&id=10179&myzip=95814&distance=3500,Local Educational Agency (LEA),"17231 Gothard Street Huntington Beach, CA 92647",-118.000306,33.712451
591,Golden West College,https://www.otan.us/caaeproviders/index.cfm?fuseaction=detail&id=994437830&myzip=95814&distance=3500,Community College,"15744 Goldenwest Street Huntington Beach, California 92647",-118.004559,33.731989
592,Department of State Hospital - Patton,https://www.otan.us/caaeproviders/index.cfm?fuseaction=detail&id=99999927&myzip=95814&distance=3500,State Agency,"3102 E. Highland Avenue Patton, CA 92369",-117.22392,34.13584
593,Rancho Santiago Community College District,https://www.otan.us/caaeproviders/index.cfm?fuseaction=detail&id=888888406&myzip=95814&distance=3500,Community College,"2323 N. Broadway Santa Ana, CA 92706",-117.868588,33.767414
594,Santa Ana College,https://www.otan.us/caaeproviders/index.cfm?fuseaction=detail&id=994437831&myzip=95814&distance=3500,Community College,"1530 W. 17th Street Santa Ana, California 92706",-117.89007,33.75996
595,Jurupa Adult School,https://www.otan.us/caaeproviders/index.cfm?fuseaction=detail&id=10182&myzip=95814&distance=3500,Local Educational Agency (LEA),"4041 Pacific Avenue Jurupa Valley, CA 92509",-117.42208,34.00121
596,Riverside County Library System Adult Literacy Program,https://www.otan.us/caaeproviders/index.cfm?fuseaction=detail&id=10496&myzip=95814&distance=3500,Public Library,"5840 Mission Blvd Jurupa Valley, CA 92509",-117.41498,33.99986
597,Norco College,https://www.otan.us/caaeproviders/index.cfm?fuseaction=detail&id=994437832&myzip=95814&distance=3500,Community College,"2001 Third Street Norco, California 92860",-117.55876,33.91474
598,Asian-American Resource Center,https://www.otan.us/caaeproviders/index.cfm?fuseaction=detail&id=10400&myzip=95814&distance=3500,Community-based Organization,"1133 South E Street San Bernardino, CA 92408",-117.293817,34.080775
599,Coastline Community College,https://www.otan.us/caaeproviders/index.cfm?fuseaction=detail&id=994437834&myzip=95814&distance=3500,Community College,"11460 Warner Avenue Fountain Valley, California 92708",-117.92982,33.71626
600,Orange Adult Education,https://www.otan.us/caaeproviders/index.cfm?fuseaction=detail&id=9950&myzip=95814&distance=3500,Local Educational Agency (LEA),"250 South Yorba Street Orange, CA 92869",-117.827722,33.785326
601,Orange Education Center,https://www.otan.us/caaeproviders/index.cfm?fuseaction=detail&id=10494&myzip=95814&distance=3500,Community College,"8045 East Chapman Avenue Orange, CA 92869",-117.76716,33.794971
602,ROP-Career Education,https://www.otan.us/caaeproviders/index.cfm?fuseaction=detail&id=213030566&myzip=95814&distance=3500,LEA,"250 South Yorba Street Orange, CA 92869",-117.827722,33.785326
603,Santiago Canyon College,https://www.otan.us/caaeproviders/index.cfm?fuseaction=detail&id=994437833&myzip=95814&distance=3500,Community College,"8045 E. Chapman Avenue Orange, California 92869",-117.76716,33.794971
604,Santa Ana Unified Adult Transition Program,https://www.otan.us/caaeproviders/index.cfm?fuseaction=detail&id=703030582&myzip=95814&distance=3500,LEA,"521 West Walnut Street Santa Ana, CA 92701",-117.861257,33.744748
605,Centennial Education Center,https://www.otan.us/caaeproviders/index.cfm?fuseaction=detail&id=10493&myzip=95814&distance=3500,Community College,"2900 W Edinger Ave Santa Ana, CA 92704",-117.90835,33.72747
606,Riverside Community College District,https://www.otan.us/caaeproviders/index.cfm?fuseaction=detail&id=888888638&myzip=95814&distance=3500,Community College,"3801 Market Street Riverside, CA 92501",-117.376054,33.982421
607,Corona-Norco Adult School,https://www.otan.us/caaeproviders/index.cfm?fuseaction=detail&id=10201&myzip=95814&distance=3500,Local Educational Agency (LEA),"300 S. Buena Vista Avenue Corona, CA 92882",-117.5787,33.87916
608,Colton Joint Unified School District Adult Education,https://www.otan.us/caaeproviders/index.cfm?fuseaction=detail&id=9952&myzip=95814&distance=3500,Local Educational Agency (LEA),"18829 Orange St. Bloomington, CA 92324",-117.39515,34.0649
609,Santa Ana Adult Education,https://www.otan.us/caaeproviders/index.cfm?fuseaction=detail&id=10039&myzip=95814&distance=3500,Local Educational Agency (LEA),"2626 S. Pullman Street Santa Ana, CA 92705",-117.849086,33.710144
610,Tustin Adult School,https://www.otan.us/caaeproviders/index.cfm?fuseaction=detail&id=433037538&myzip=95814&distance=3500,LEA,"300 South C Street Tustin, CA 92780",-117.825492,33.743152
611,Alvord Community Adult,https://www.otan.us/caaeproviders/index.cfm?fuseaction=detail&id=9794&myzip=95814&distance=3500,Local Educational Agency (LEA),"3606 Pierce Street Riverside, CA 92503",-117.48878,33.891874
612,Coast Community College District,https://www.otan.us/caaeproviders/index.cfm?fuseaction=detail&id=888888439&myzip=95814&distance=3500,Community College,"1370 Adams Avenue Costa Mesa, CA 92626",-117.91532,33.67386
613,Orange Coast College,https://www.otan.us/caaeproviders/index.cfm?fuseaction=detail&id=994437836&myzip=95814&distance=3500,Community College,"2701 Fairview Road Costa Mesa, California 92626",-117.911877,33.671943
614,Independent Study Program - Adult Education,https://www.otan.us/caaeproviders/index.cfm?fuseaction=detail&id=9927&myzip=95814&distance=3500,Local Educational Agency (LEA),"2802 South Flower Street Santa Ana, CA 92707",-117.879614,33.707906
615,Tustin Adult School,https://www.otan.us/caaeproviders/index.cfm?fuseaction=detail&id=9937&myzip=95814&distance=3500,Local Educational Agency (LEA),"1151 San Juan Street Tustin, CA 92782",-117.81773,33.73999
616,IBEW Local Union 440,https://www.otan.us/caaeproviders/index.cfm?fuseaction=detail&id=99999926&myzip=95814&distance=3500,CBO,"1405 Spruce Street, Suite G Riverside, CA 92507",-117.342376,33.990483
617,Redlands Adult School,https://www.otan.us/caaeproviders/index.cfm?fuseaction=detail&id=10106&myzip=95814&distance=3500,Local Educational Agency (LEA),"1214 Indiana Ct. Building B Redlands, CA 92374",-117.204802,34.068239
618,Riverside Adult School,https://www.otan.us/caaeproviders/index.cfm?fuseaction=detail&id=10109&myzip=95814&distance=3500,Local Educational Agency (LEA),"6735 Magnolia Avenue Riverside, CA 92506",-117.398146,33.951445
619,Riverside Family Resource Center,https://www.otan.us/caaeproviders/index.cfm?fuseaction=detail&id=153336666&myzip=95814&distance=3500,LEA,"6735 Magnolia Avenue Riverside, CA 92506",-117.398146,33.951445
620,Riverside City College,https://www.otan.us/caaeproviders/index.cfm?fuseaction=detail&id=994437835&myzip=95814&distance=3500,Community College,"4800 Magnolia Avenue Riverside, California 92506",-117.384412,33.971506
621,Irvine Adult School,https://www.otan.us/caaeproviders/index.cfm?fuseaction=detail&id=9769&myzip=95814&distance=3500,Local Educational Agency (LEA),"3387 Barranca Parkway Irvine, CA 92606",-117.820622,33.690762
622,Newport-Mesa Adult Education - BESST Center,https://www.otan.us/caaeproviders/index.cfm?fuseaction=detail&id=10262&myzip=95814&distance=3500,Local Educational Agency (LEA),"2045 Meyer Place Costa Mesa, CA 92627",-117.92491,33.64988
623,BESST Center,https://www.otan.us/caaeproviders/index.cfm?fuseaction=detail&id=11044&myzip=95814&distance=3500,,"2045 Meyer Place Costa Mesa, CA 92627",-117.92491,33.64988
624,Irvine Valley College,https://www.otan.us/caaeproviders/index.cfm?fuseaction=detail&id=888888653&myzip=95814&distance=3500,Community College,"5500 Irvine Center Drive Irvine, CA 92618",-117.775614,33.672012
625,Yucaipa Adult School,https://www.otan.us/caaeproviders/index.cfm?fuseaction=detail&id=9926&myzip=95814&distance=3500,Local Educational Agency (LEA),"12358 #B Sixth Street Yucaipa, CA 92399",-117.0431,34.0336
626,San Bernardino Community College District,https://www.otan.us/caaeproviders/index.cfm?fuseaction=detail&id=888888402&myzip=95814&distance=3500,Community College,"11711 Sand Canyon Road Yucaipa, CA 92399",-117.105024,34.039338
627,Crafton Hills College,https://www.otan.us/caaeproviders/index.cfm?fuseaction=detail&id=994437837&myzip=95814&distance=3500,,", 92399",-117.100611,34.038853
628,Moreno Valley Community Adult School,https://www.otan.us/caaeproviders/index.cfm?fuseaction=detail&id=10147&myzip=95814&distance=3500,Local Educational Agency (LEA),"13350 Indian Street Moreno Valley, CA 92553",-117.23454,33.92867
629,Moreno Valley Adult Education,https://www.otan.us/caaeproviders/index.cfm?fuseaction=detail&id=243333754&myzip=95814&distance=3500,LEA,"24551 Dracaea Avenue Moreno Valley, CA 92553",-117.23282,33.92722
630,Moreno Valley College,https://www.otan.us/caaeproviders/index.cfm?fuseaction=detail&id=994437838&myzip=95814&distance=3500,Community College,"16130 Laselle Street Moreno Valley, California 92551",-117.20753,33.89151
631,Perris Community Adult School,https://www.otan.us/caaeproviders/index.cfm?fuseaction=detail&id=10162&myzip=95814&distance=3500,Local Educational Agency (LEA),"418 West Ellis Avenue, Rm# 112 Perris, CA 92570",-118.28734,34.10896
632,Saddleback Valley Unified School District Adult Education,https://www.otan.us/caaeproviders/index.cfm?fuseaction=detail&id=353030087&myzip=95814&distance=3500,LEA,"25598 Peter A. Hartman Way Mission Viejo, CA 92691",-117.68366,33.62071
633,South Orange County Community College District,https://www.otan.us/caaeproviders/index.cfm?fuseaction=detail&id=888888386&myzip=95814&distance=3500,Community College,"28000 Marguerite Parkway Mission Viejo, CA 92692",-117.6703,33.55379
634,Saddleback College ,https://www.otan.us/caaeproviders/index.cfm?fuseaction=detail&id=888888654&myzip=95814&distance=3500,Community College,"28000 Marguerite Parkway Mission Viejo , CA 92692",-117.6703,33.55379
635,Laguna Beach Adult Education,https://www.otan.us/caaeproviders/index.cfm?fuseaction=detail&id=9939&myzip=95814&distance=3500,Local Educational Agency (LEA),"550 Blumont Street Laguna Beach, CA 92651",-117.77842,33.54265
636,Beaumont Adult Education,https://www.otan.us/caaeproviders/index.cfm?fuseaction=detail&id=10242&myzip=95814&distance=3500,Local Educational Agency (LEA),"1575 Cherry Ave Beaumont, CA 92223",-116.96435,33.95261
637,Capistrano Adult School,https://www.otan.us/caaeproviders/index.cfm?fuseaction=detail&id=10249&myzip=95814&distance=3500,Local Educational Agency (LEA),"Juan Capistrano Campus 31351 El Camino Real San Juan Capistrano, CA 92675",-117.663716,33.506769
638,College and Career Advantage,https://www.otan.us/caaeproviders/index.cfm?fuseaction=detail&id=123095023&myzip=95814&distance=3500,LEA,"33122 Valle Road San Juan Capistrano, CA 92675",-117.6627,33.48953
639,Capistrano Unified Adult Education Program,https://www.otan.us/caaeproviders/index.cfm?fuseaction=detail&id=643035979&myzip=95814&distance=3500,LEA,"31576 El Camino Real San Juan Capistrano, CA 92675",-117.66078,33.50407
640,Desert Edge School,https://www.otan.us/caaeproviders/index.cfm?fuseaction=detail&id=10484&myzip=95814&distance=3500,Local Educational Agency (LEA),"/SCF 1627 South Hargrave Street Banning, CA 92220",-116.450516,33.823673
641,Banning Adult School,https://www.otan.us/caaeproviders/index.cfm?fuseaction=detail&id=853330206&myzip=95814&distance=3500,LEA,"1151 West Wilson Street Banning, CA 92220",-116.88879,33.93267
642,San Jacinto USD Adult Education - Mt. View HS,https://www.otan.us/caaeproviders/index.cfm?fuseaction=detail&id=9974&myzip=95814&distance=3500,Local Educational Agency (LEA),"1000 N. Ramona Blvd. San Jacinto, CA 92582",-116.97605,33.79695
643,Valley Adult School,https://www.otan.us/caaeproviders/index.cfm?fuseaction=detail&id=9963&myzip=95814&distance=3500,Local Educational Agency (LEA),"520 Chaney Street Lake Elsinore, CA 92530",-117.33746,33.68019
644,Murrieta Valley Adult School,https://www.otan.us/caaeproviders/index.cfm?fuseaction=detail&id=10153&myzip=95814&distance=3500,Local Educational Agency (LEA),"24150 Hayes Avenue Murrieta, CA 92562",-117.23144,33.55876
645,Copper Mountain Community College District,https://www.otan.us/caaeproviders/index.cfm?fuseaction=detail&id=10820&myzip=95814&distance=3500,,"P. O. Box 1398 (6162 Rotary Way) Joshua Tree, CA 92252",-116.32,34.13
646,Hemet Adult School,https://www.otan.us/caaeproviders/index.cfm?fuseaction=detail&id=9971&myzip=95814&distance=3500,Local Educational Agency (LEA),"831 E. Devonshire Ave. Hemet, CA 92543",-116.962318,33.751122
647,Palm Springs Adult School,https://www.otan.us/caaeproviders/index.cfm?fuseaction=detail&id=10114&myzip=95814&distance=3500,Local Educational Agency (LEA),"2248 E. Ramon Road Palm Springs , CA 92262",-116.52262,33.81606
648,Temecula Valley Adult School,https://www.otan.us/caaeproviders/index.cfm?fuseaction=detail&id=9983&myzip=95814&distance=3500,Local Educational Agency (LEA),"32225 Pio Pico Road Room 2 Temecula, CA 92592",-117.104056,33.487789
649,MiraCosta Community College District,https://www.otan.us/caaeproviders/index.cfm?fuseaction=detail&id=888888417&myzip=95814&distance=3500,Community College,"One Barnard Drive Oceanside, CA 92056",-117.302312,33.1910671
650,College of the Desert,https://www.otan.us/caaeproviders/index.cfm?fuseaction=detail&id=10303&myzip=95814&distance=3500,Community College,"43-500 Monterey Avenue Palm Desert, CA 92260",-116.391006,33.732079
651,Desert Community College District,https://www.otan.us/caaeproviders/index.cfm?fuseaction=detail&id=888888435&myzip=95814&distance=3500,Community College,"43-500 Monterey Avenue Palm Desert, CA 92260",-116.391006,33.732079
652,MiraCosta College Community Learning Center,https://www.otan.us/caaeproviders/index.cfm?fuseaction=detail&id=10388&myzip=95814&distance=3500,Community College,"1831 Mission Avenue Oceanside, CA 92058",-117.36617,33.2031
653,Vista Unified School District,https://www.otan.us/caaeproviders/index.cfm?fuseaction=detail&id=9220&myzip=95814&distance=3500,Local Educational Agency (LEA),"1234 Arcadia Avenue Vista, CA 92084",-117.222114,33.22621
654,Vista Adult School,https://www.otan.us/caaeproviders/index.cfm?fuseaction=detail&id=9865&myzip=95814&distance=3500,Local Educational Agency (LEA),"510 Sunset Drive Vista, CA 92084",-117.24094,33.18722
655,Vista Townsite Community Partnership,https://www.otan.us/caaeproviders/index.cfm?fuseaction=detail&id=10501&myzip=95814&distance=3500,Community-based Organization,"642 Vista Village Drive Vista, CA 92084",-117.25071,33.19464
656,Education to Career Network of North San Diego County,https://www.otan.us/caaeproviders/index.cfm?fuseaction=detail&id=11067&myzip=95814&distance=3500,,"1234 Arcadia Avenue Vista, CA 92084",-117.222114,33.22621
657,Carlsbad Village Academy Adult Education,https://www.otan.us/caaeproviders/index.cfm?fuseaction=detail&id=10073&myzip=95814&distance=3500,Local Educational Agency (LEA),"1640 Magnolia Avenue Carlsbad, CA 92008",-117.32957,33.15892
658,Desert Sands Adult School,https://www.otan.us/caaeproviders/index.cfm?fuseaction=detail&id=10211&myzip=95814&distance=3500,Local Educational Agency (LEA),"43330 Palm Royale Drive La Quinta, CA 92253",-116.25343,33.64139
659,San Marcos Unified School District,https://www.otan.us/caaeproviders/index.cfm?fuseaction=detail&id=9476&myzip=95814&distance=3500,Local Educational Agency (LEA),"255 Pico Avenue Ste. 350 San Marcos, CA 92069",-117.165163,33.142486
660,San Marcos Adult School,https://www.otan.us/caaeproviders/index.cfm?fuseaction=detail&id=10654&myzip=95814&distance=3500,Local Educational Agency (LEA),"158 Cassou Road San Marcos, CA 92069",-117.158715,33.180391
661,Palomar Community College District,https://www.otan.us/caaeproviders/index.cfm?fuseaction=detail&id=888888409&myzip=95814&distance=3500,Community College,"1140 W. Mission Road San Marcos, CA 92069",-117.178763,33.152437
662,Carlsbad Adult Transition Program,https://www.otan.us/caaeproviders/index.cfm?fuseaction=detail&id=513730892&myzip=95814&distance=3500,LEA,"6225 El Camino Real Carlsbad, CA 92009",-117.26737,33.11982
663,Coachella Valley Adult School,https://www.otan.us/caaeproviders/index.cfm?fuseaction=detail&id=10698&myzip=95814&distance=3500,Local Educational Agency (LEA),"1099 Orchard Avenue Coachella, CA 92236",-116.17522,33.67716
664,Escondido Union High School District,https://www.otan.us/caaeproviders/index.cfm?fuseaction=detail&id=9369&myzip=95814&distance=3500,Local Educational Agency (LEA),"302 North Midway Drive Escondido, CA 92027",-117.050192,33.136514
665,Escondido Adult,https://www.otan.us/caaeproviders/index.cfm?fuseaction=detail&id=63730025&myzip=95814&distance=3500,LEA,"220 West Crest Escondido, CA 92025",-117.088585,33.131413
666,Coachella Valley Unified School District,https://www.otan.us/caaeproviders/index.cfm?fuseaction=detail&id=10697&myzip=95814&distance=3500,Local Educational Agency (LEA),"87225 Church Street Thermal, CA 92274",-116.14459,33.63833
667,Poway Unified School District,https://www.otan.us/caaeproviders/index.cfm?fuseaction=detail&id=9414&myzip=95814&distance=3500,Local Educational Agency (LEA),"13626 Twin Peaks Road Poway, CA 92064",-117.03566,32.97844
668,Poway Adult School,https://www.otan.us/caaeproviders/index.cfm?fuseaction=detail&id=10268&myzip=95814&distance=3500,Local Educational Agency (LEA),"13626 Twin Peaks Road Poway, CA 92064",-117.03566,32.97844
669,Needles Unified School District,https://www.otan.us/caaeproviders/index.cfm?fuseaction=detail&id=9623&myzip=95814&distance=3500,Local Educational Agency (LEA),"1900 Erin Drive Needles, CA 92363",-114.62073,34.83843
670,San Diego Miramar College,https://www.otan.us/caaeproviders/index.cfm?fuseaction=detail&id=994437840&myzip=95814&distance=3500,Community College,"10440 Black Mountain Road San Diego, California 92126",-117.121048,32.91013
671,Ramona City Unified School District,https://www.otan.us/caaeproviders/index.cfm?fuseaction=detail&id=9495&myzip=95814&distance=3500,Local Educational Agency (LEA),"720 9th Street Ramona, CA 92065",-116.86405,33.03927
672,Ramona USD - Montecito HS Adult Education,https://www.otan.us/caaeproviders/index.cfm?fuseaction=detail&id=9774&myzip=95814&distance=3500,Local Educational Agency (LEA),"720 9th Street Ramona, CA 92065",-116.86405,33.03927
673,Ramona Adult School,https://www.otan.us/caaeproviders/index.cfm?fuseaction=detail&id=43730900&myzip=95814&distance=3500,LEA,"720 Ninth Street Ramona, CA 92065",-116.86405,33.03927
674,San Diego Adult School,https://www.otan.us/caaeproviders/index.cfm?fuseaction=detail&id=10069&myzip=95814&distance=3500,Local Educational Agency (LEA),"6735 Gifford Way Revere Center, Room 3 San Diego, CA 92109",-117.25,32.8
675,San Diego Mesa College,https://www.otan.us/caaeproviders/index.cfm?fuseaction=detail&id=994437841&myzip=95814&distance=3500,Community College,"7250 Mesa College San Deigo, California 92111",-117.163757,32.803219
676,Grossmont Health Occupations Center,https://www.otan.us/caaeproviders/index.cfm?fuseaction=detail&id=10020&myzip=95814&distance=3500,Local Educational Agency (LEA),"9368 Oakbourne Santee, CA 92071",-117.01169,32.84427
677,San Diego Continuing Education/San Diego Community College District,https://www.otan.us/caaeproviders/index.cfm?fuseaction=detail&id=10302&myzip=95814&distance=3500,Community College,"3375 Camino Del Rio South (SDCCD) San Diego, CA 92108",-117.120341,32.775764
678,San Diego City College,https://www.otan.us/caaeproviders/index.cfm?fuseaction=detail&id=994437842&myzip=95814&distance=3500,Community College,"1313 Park Blvd. San Diego, California 92101",-117.153618,32.719181
679,International Rescue Committee,https://www.otan.us/caaeproviders/index.cfm?fuseaction=detail&id=11056&myzip=95814&distance=3500,,"5348 University Ave, Suite 205C San Diego, CA 92105",-117.080755,32.74958
680,Grossmont College,https://www.otan.us/caaeproviders/index.cfm?fuseaction=detail&id=10805&myzip=95814&distance=3500,,"8800 Grossmont College Drive El Cajon, CA 92020",-117.00602,32.81303
681,El Cajon Adult Center,https://www.otan.us/caaeproviders/index.cfm?fuseaction=detail&id=10174&myzip=95814&distance=3500,Local Educational Agency (LEA),"1075 East Madison Avenue El Cajon, CA 92021",-116.94728,32.80009
682,Coronado Adult Education,https://www.otan.us/caaeproviders/index.cfm?fuseaction=detail&id=9812&myzip=95814&distance=3500,Local Educational Agency (LEA),"650 D Avenue Coronado, CA 92118",-117.1782,32.69142
683,Grossmont Adult School,https://www.otan.us/caaeproviders/index.cfm?fuseaction=detail&id=10019&myzip=95814&distance=3500,Local Educational Agency (LEA),"1550 Melody Lane El Cajon, CA 92019",-116.92526,32.79656
684,Foothills Adult Education Center,https://www.otan.us/caaeproviders/index.cfm?fuseaction=detail&id=10292&myzip=95814&distance=3500,Local Educational Agency (LEA),"1550 Melody Lane El Cajon, CA 92019",-116.92526,32.79656
685,Cuyamaca College,https://www.otan.us/caaeproviders/index.cfm?fuseaction=detail&id=10804&myzip=95814&distance=3500,,"900 Rancho San Diego Parkway El Cajon, CA 92019",-116.941358,32.742751
686,National City Adult School,https://www.otan.us/caaeproviders/index.cfm?fuseaction=detail&id=10030&myzip=95814&distance=3500,Local Educational Agency (LEA),"517 West 24th Street National City, CA 91950",-117.107145,32.660996
687,Steele Canyon Adult Center,https://www.otan.us/caaeproviders/index.cfm?fuseaction=detail&id=10293&myzip=95814&distance=3500,Local Educational Agency (LEA),"12440 Campo Road Spring Valley, CA 91978",-116.92475,32.72781
688,Sweetwater Division of Adult Education,https://www.otan.us/caaeproviders/index.cfm?fuseaction=detail&id=9855&myzip=95814&distance=3500,Local Educational Agency (LEA),"461 Moss Street Chula Vista, CA 91911",-117.07716,32.61516
689,Chula Vista Adult School,https://www.otan.us/caaeproviders/index.cfm?fuseaction=detail&id=10286&myzip=95814&distance=3500,Local Educational Agency (LEA),"1034 Fourth Avenue Chula Vista , CA 91911",-117.075687,32.614499
690,Chula Vista Library,https://www.otan.us/caaeproviders/index.cfm?fuseaction=detail&id=99999945&myzip=95814&distance=3500,Public Library,"365 F Street Chula Vista, CA 91910",-117.083178,32.641006
691,Southwestern Community College District,https://www.otan.us/caaeproviders/index.cfm?fuseaction=detail&id=888888385&myzip=95814&distance=3500,Community College,"900 Otay Lakes Road Chula Vista, CA 91910",-116.998359,32.640528
692,Comprehensive Training Systems,https://www.otan.us/caaeproviders/index.cfm?fuseaction=detail&id=10530&myzip=95814&distance=3500,Community-based Organization,"497 11th Street Suite 4 Imperial Beach, CA 91932",-117.10999,32.588966
693,Montgomery Adult School,https://www.otan.us/caaeproviders/index.cfm?fuseaction=detail&id=10027&myzip=95814&distance=3500,Local Educational Agency (LEA),"3240 Palm Avenue San Diego, CA 92154",-117.06275,32.58388
694,San Ysidro Adult School,https://www.otan.us/caaeproviders/index.cfm?fuseaction=detail&id=10038&myzip=95814&distance=3500,Local Educational Agency (LEA),"4220 Otay Mesa Road San Ysidro, CA 92173",-117.0408,32.55983
695,Mountain Empire Adult Education,https://www.otan.us/caaeproviders/index.cfm?fuseaction=detail&id=9955&myzip=95814&distance=3500,Local Educational Agency (LEA),"31360 Highway 94 Campo, CA 91906",-116.47314,32.62806
696,Brawley Adult Education,https://www.otan.us/caaeproviders/index.cfm?fuseaction=detail&id=10243&myzip=95814&distance=3500,Local Educational Agency (LEA),"104 Magnolia Street Brawley, CA 92227",-115.54155,32.98503
697,Palo Verde Unified School District,https://www.otan.us/caaeproviders/index.cfm?fuseaction=detail&id=9483&myzip=95814&distance=3500,Local Educational Agency (LEA),"295 North First Street Blythe, CA 92225",-114.59641,33.61313
698,Palo Verde Community College District,https://www.otan.us/caaeproviders/index.cfm?fuseaction=detail&id=888888410&myzip=95814&distance=3500,Community College,"One College Drive Blythe, CA 92225",-114.6,33.61
699,Imperial Unified Adult Education,https://www.otan.us/caaeproviders/index.cfm?fuseaction=detail&id=9746&myzip=95814&distance=3500,Local Educational Agency (LEA),"322 N. Imperial Avenue Imperial, CA 92251",-115.569893,32.849709
700,Imperial Community College District,https://www.otan.us/caaeproviders/index.cfm?fuseaction=detail&id=888888427&myzip=95814&distance=3500,Community College,"380 E. Aten Road Imperial, CA 92251",-115.50557,32.829592
701,Central Union Adult High School,https://www.otan.us/caaeproviders/index.cfm?fuseaction=detail&id=10253&myzip=95814&distance=3500,Local Educational Agency (LEA),"2345 S 2nd St. Suite A El Centro, CA 92243",-115.54371,32.76964
702,Holtville Adult Education,https://www.otan.us/caaeproviders/index.cfm?fuseaction=detail&id=9767&myzip=95814&distance=3500,Local Educational Agency (LEA),"522 West 8th Street Holtville, CA 92250",-115.38809,32.81643
703,Robert F. Morales Adult Education,https://www.otan.us/caaeproviders/index.cfm?fuseaction=detail&id=10750&myzip=95814&distance=3500,,"824 Blair Calexico, CA 92231",-115.48954,32.674284
704,San Pasqual Adult Education Program,https://www.otan.us/caaeproviders/index.cfm?fuseaction=detail&id=141330059&myzip=95814&distance=3500,LEA,"676 Baseline Road Winterhaven, CA 92283",-114.59895,32.75003
705,A. Warren McClaskey Adult Center,https://www.otan.us/caaeproviders/index.cfm?fuseaction=detail&id=10610&myzip=95814&distance=3500,Local Educational Agency (LEA),"5241 J Street Sacramento, CA 96819",-121.439157,38.566467
